{"type":"FeatureCollection","features":[{"type":"Feature","geometry":{"type":"Point","coordinates":[-86.15691933,39.81494676]},"properties":{"name":"Community Action of Greater Indianapolis","assetType":"Community Development Corporations","dataYear":"2018","assetId":"901539","subcategory":"Organizational/Community/International Services","detail":"https://classic.savi.org/SAVI/PopUps/AssetMoreInfo.aspx?AssetID=901539"}},{"type":"Feature","geometry":{"type":"Point","coordinates":[-86.01170337,39.82745989]},"properties":{"name":"Community Alliance of the Far Eastside","assetType":"Community Development Corporations","dataYear":"2018","assetId":"901538","subcategory":"Organizational/Community/International Services","detail":"https://classic.savi.org/SAVI/PopUps/AssetMoreInfo.aspx?AssetID=901538"}},{"type":"Feature","geometry":{"type":"Point","coordinates":[-86.15917004,39.73948062]},"properties":{"name":"Concord Community Devlopment Corporation","assetType":"Community Development Corporations","dataYear":"2018","assetId":"901537","subcategory":"Organizational/Community/International Services","detail":"https://classic.savi.org/SAVI/PopUps/AssetMoreInfo.aspx?AssetID=901537"}},{"type":"Feature","geometry":{"type":"Point","coordinates":[-86.20812044,39.88166741]},"properties":{"name":"Crooked Creek Community Development Corp","assetType":"Community Development Corporations","dataYear":"2018","assetId":"901536","subcategory":"Organizational/Community/International Services","detail":"https://classic.savi.org/SAVI/PopUps/AssetMoreInfo.aspx?AssetID=901536"}},{"type":"Feature","geometry":{"type":"Point","coordinates":[-86.0645462,39.84051964]},"properties":{"name":"Devington Community Development Corporation","assetType":"Community Development Corporations","dataYear":"2018","assetId":"901535","subcategory":"Organizational/Community/International Services","detail":"https://classic.savi.org/SAVI/PopUps/AssetMoreInfo.aspx?AssetID=901535"}},{"type":"Feature","geometry":{"type":"Point","coordinates":[-86.11630261,39.76919025]},"properties":{"name":"Englewood Community Development Corp","assetType":"Community Development Corporations","dataYear":"2018","assetId":"901534","subcategory":"Organizational/Community/International Services","detail":"https://classic.savi.org/SAVI/PopUps/AssetMoreInfo.aspx?AssetID=901534"}},{"type":"Feature","geometry":{"type":"Point","coordinates":[-86.14248369,39.79039919]},"properties":{"name":"King Park Area Development Corporation","assetType":"Community Development Corporations","dataYear":"2018","assetId":"901533","subcategory":"Organizational/Community/International Services","detail":"https://classic.savi.org/SAVI/PopUps/AssetMoreInfo.aspx?AssetID=901533"}},{"type":"Feature","geometry":{"type":"Point","coordinates":[-86.00759015,39.85654464]},"properties":{"name":"Lawrence Community Development Corp","assetType":"Community Development Corporations","dataYear":"2018","assetId":"901532","subcategory":"Organizational/Community/International Services","detail":"https://classic.savi.org/SAVI/PopUps/AssetMoreInfo.aspx?AssetID=901532"}},{"type":"Feature","geometry":{"type":"Point","coordinates":[-86.15689059,39.81364347]},"properties":{"name":"Mapleton-Fall Creek Development Corp","assetType":"Community Development Corporations","dataYear":"2018","assetId":"901531","subcategory":"Organizational/Community/International Services","detail":"https://classic.savi.org/SAVI/PopUps/AssetMoreInfo.aspx?AssetID=901531"}},{"type":"Feature","geometry":{"type":"Point","coordinates":[-86.11975772,39.80828369]},"properties":{"name":"Martindale-Brightwood Community Development Corp","assetType":"Community Development Corporations","dataYear":"2018","assetId":"901530","subcategory":"Organizational/Community/International Services","detail":"https://classic.savi.org/SAVI/PopUps/AssetMoreInfo.aspx?AssetID=901530"}},{"type":"Feature","geometry":{"type":"Point","coordinates":[-86.12315284,39.78154916]},"properties":{"name":"Near East Area Renewal","assetType":"Community Development Corporations","dataYear":"2018","assetId":"901529","subcategory":"Organizational/Community/International Services","detail":"https://classic.savi.org/SAVI/PopUps/AssetMoreInfo.aspx?AssetID=901529"}},{"type":"Feature","geometry":{"type":"Point","coordinates":[-86.15741498,39.78901691]},"properties":{"name":"Near North Development Corporation","assetType":"Community Development Corporations","dataYear":"2018","assetId":"901528","subcategory":"Organizational/Community/International Services","detail":"https://classic.savi.org/SAVI/PopUps/AssetMoreInfo.aspx?AssetID=901528"}},{"type":"Feature","geometry":{"type":"Point","coordinates":[-86.12969015,39.80256446]},"properties":{"name":"Oasis Christian Community Development Corporation","assetType":"Community Development Corporations","dataYear":"2018","assetId":"901527","subcategory":"Organizational/Community/International Services","detail":"https://classic.savi.org/SAVI/PopUps/AssetMoreInfo.aspx?AssetID=901527"}},{"type":"Feature","geometry":{"type":"Point","coordinates":[-86.1557168,39.77742233]},"properties":{"name":"Partners in Housing Development Corp","assetType":"Community Development Corporations","dataYear":"2018","assetId":"901526","subcategory":"Organizational/Community/International Services","detail":"https://classic.savi.org/SAVI/PopUps/AssetMoreInfo.aspx?AssetID=901526"}},{"type":"Feature","geometry":{"type":"Point","coordinates":[-86.15425385,39.76852456]},"properties":{"name":"Prosperity Indiana","assetType":"Community Development Corporations","dataYear":"2018","assetId":"901525","subcategory":"Organizational/Community/International Services","detail":"https://classic.savi.org/SAVI/PopUps/AssetMoreInfo.aspx?AssetID=901525"}},{"type":"Feature","geometry":{"type":"Point","coordinates":[-86.14170694,39.80140663]},"properties":{"name":"Rebuilding the Wall Inc","assetType":"Community Development Corporations","dataYear":"2018","assetId":"901524","subcategory":"Organizational/Community/International Services","detail":"https://classic.savi.org/SAVI/PopUps/AssetMoreInfo.aspx?AssetID=901524"}},{"type":"Feature","geometry":{"type":"Point","coordinates":[-86.14251092,39.77909627]},"properties":{"name":"Riley Area Development Corp","assetType":"Community Development Corporations","dataYear":"2018","assetId":"901523","subcategory":"Organizational/Community/International Services","detail":"https://classic.savi.org/SAVI/PopUps/AssetMoreInfo.aspx?AssetID=901523"}},{"type":"Feature","geometry":{"type":"Point","coordinates":[-86.1407305,39.75050187]},"properties":{"name":"Southeast Neighborhood Development Inc","assetType":"Community Development Corporations","dataYear":"2018","assetId":"901522","subcategory":"Organizational/Community/International Services","detail":"https://classic.savi.org/SAVI/PopUps/AssetMoreInfo.aspx?AssetID=901522"}},{"type":"Feature","geometry":{"type":"Point","coordinates":[-86.11510605,39.82808812]},"properties":{"name":"United Northeast Community Development Corp","assetType":"Community Development Corporations","dataYear":"2018","assetId":"901521","subcategory":"Organizational/Community/International Services","detail":"https://classic.savi.org/SAVI/PopUps/AssetMoreInfo.aspx?AssetID=901521"}},{"type":"Feature","geometry":{"type":"Point","coordinates":[-86.19540561,39.75059851]},"properties":{"name":"West Indianapolis Development Corporation","assetType":"Community Development Corporations","dataYear":"2018","assetId":"901520","subcategory":"Organizational/Community/International Services","detail":"https://classic.savi.org/SAVI/PopUps/AssetMoreInfo.aspx?AssetID=901520"}},{"type":"Feature","geometry":{"type":"Point","coordinates":[-86.19875299,39.77477626]},"properties":{"name":"Westside Community Development Corp","assetType":"Community Development Corporations","dataYear":"2018","assetId":"901519","subcategory":"Organizational/Community/International Services","detail":"https://classic.savi.org/SAVI/PopUps/AssetMoreInfo.aspx?AssetID=901519"}},{"type":"Feature","geometry":{"type":"Point","coordinates":[-86.15184975,39.77604489]},"properties":{"name":"Day Nursery Association","assetType":"Child Care Providers Associations","dataYear":"2016","assetId":"839472","subcategory":"Organizational/Community/International Services","detail":"https://classic.savi.org/SAVI/PopUps/AssetMoreInfo.aspx?AssetID=839472"}}]}