{"type":"FeatureCollection","features":[{"type":"Feature","geometry":{"type":"Point","coordinates":[-86.155534,39.807879]},"properties":{"name":"ACTION CENTER WIC PROGRAM","assetType":"WIC","dataYear":"2014","assetId":"811535","subcategory":"Income Support and Employment","detail":"https://classic.savi.org/SAVI/PopUps/AssetMoreInfo.aspx?AssetID=811535"}},{"type":"Feature","geometry":{"type":"Point","coordinates":[-86.107695,39.737334]},"properties":{"name":"BARRINGTON WIC CLINIC","assetType":"WIC","dataYear":"2014","assetId":"811543","subcategory":"Income Support and Employment","detail":"https://classic.savi.org/SAVI/PopUps/AssetMoreInfo.aspx?AssetID=811543"}},{"type":"Feature","geometry":{"type":"Point","coordinates":[-86.1717,39.8056]},"properties":{"name":"BLACKBURN CLINIC","assetType":"WIC","dataYear":"2014","assetId":"811533","subcategory":"Income Support and Employment","detail":"https://classic.savi.org/SAVI/PopUps/AssetMoreInfo.aspx?AssetID=811533"}},{"type":"Feature","geometry":{"type":"Point","coordinates":[-86.477102,40.047464]},"properties":{"name":"BOONE COUNTY WIC PROGRAM","assetType":"WIC","dataYear":"2014","assetId":"811527","subcategory":"Income Support and Employment","detail":"https://classic.savi.org/SAVI/PopUps/AssetMoreInfo.aspx?AssetID=811527"}},{"type":"Feature","geometry":{"type":"Point","coordinates":[-86.24747,39.208353]},"properties":{"name":"BROWN CO WIC PROGRAM","assetType":"WIC","dataYear":"2014","assetId":"811522","subcategory":"Income Support and Employment","detail":"https://classic.savi.org/SAVI/PopUps/AssetMoreInfo.aspx?AssetID=811522"}},{"type":"Feature","geometry":{"type":"Point","coordinates":[-86.139846,39.747861]},"properties":{"name":"COTTAGE CORNER WIC OFFICE","assetType":"WIC","dataYear":"2014","assetId":"811530","subcategory":"Income Support and Employment","detail":"https://classic.savi.org/SAVI/PopUps/AssetMoreInfo.aspx?AssetID=811530"}},{"type":"Feature","geometry":{"type":"Point","coordinates":[-86.10277,39.826018]},"properties":{"name":"FOREST MANOR HEALTH CENTER","assetType":"WIC","dataYear":"2014","assetId":"811536","subcategory":"Income Support and Employment","detail":"https://classic.savi.org/SAVI/PopUps/AssetMoreInfo.aspx?AssetID=811536"}},{"type":"Feature","geometry":{"type":"Point","coordinates":[-86.00185,39.826068]},"properties":{"name":"GRASSY CREEK CLINIC","assetType":"WIC","dataYear":"2014","assetId":"811540","subcategory":"Income Support and Employment","detail":"https://classic.savi.org/SAVI/PopUps/AssetMoreInfo.aspx?AssetID=811540"}},{"type":"Feature","geometry":{"type":"Point","coordinates":[-85.771645,39.799915]},"properties":{"name":"HANCOCK COUNTY WIC CLINIC","assetType":"WIC","dataYear":"2014","assetId":"811528","subcategory":"Income Support and Employment","detail":"https://classic.savi.org/SAVI/PopUps/AssetMoreInfo.aspx?AssetID=811528"}},{"type":"Feature","geometry":{"type":"Point","coordinates":[-86.520391,39.758399]},"properties":{"name":"HENDRICKS COUNTY WIC PROGRAM","assetType":"WIC","dataYear":"2014","assetId":"811525","subcategory":"Income Support and Employment","detail":"https://classic.savi.org/SAVI/PopUps/AssetMoreInfo.aspx?AssetID=811525"}},{"type":"Feature","geometry":{"type":"Point","coordinates":[-86.011654,40.054426]},"properties":{"name":"INDIANA HEALTH CENTERS","assetType":"WIC","dataYear":"2014","assetId":"811529","subcategory":"Income Support and Employment","detail":"https://classic.savi.org/SAVI/PopUps/AssetMoreInfo.aspx?AssetID=811529"}},{"type":"Feature","geometry":{"type":"Point","coordinates":[-86.062677,39.473752]},"properties":{"name":"JOHNSON COUNTY WIC PROGRAM","assetType":"WIC","dataYear":"2014","assetId":"811520","subcategory":"Income Support and Employment","detail":"https://classic.savi.org/SAVI/PopUps/AssetMoreInfo.aspx?AssetID=811520"}},{"type":"Feature","geometry":{"type":"Point","coordinates":[-86.012071,39.826133]},"properties":{"name":"LAPLAZA HISPANIC CENTER","assetType":"WIC","dataYear":"2014","assetId":"811539","subcategory":"Income Support and Employment","detail":"https://classic.savi.org/SAVI/PopUps/AssetMoreInfo.aspx?AssetID=811539"}},{"type":"Feature","geometry":{"type":"Point","coordinates":[-85.678752,40.122932]},"properties":{"name":"MADISON COUNTY WIC PROGRAM-ANDERSON","assetType":"WIC","dataYear":"2014","assetId":"811523","subcategory":"Income Support and Employment","detail":"https://classic.savi.org/SAVI/PopUps/AssetMoreInfo.aspx?AssetID=811523"}},{"type":"Feature","geometry":{"type":"Point","coordinates":[-85.842063,40.275589]},"properties":{"name":"MADISON COUNTY WIC PROGRAM-ELWOOD","assetType":"WIC","dataYear":"2014","assetId":"811524","subcategory":"Income Support and Employment","detail":"https://classic.savi.org/SAVI/PopUps/AssetMoreInfo.aspx?AssetID=811524"}},{"type":"Feature","geometry":{"type":"Point","coordinates":[-86.441988,39.407713]},"properties":{"name":"MORGAN COUNTY WIC PROGRAM","assetType":"WIC","dataYear":"2014","assetId":"811521","subcategory":"Income Support and Employment","detail":"https://classic.savi.org/SAVI/PopUps/AssetMoreInfo.aspx?AssetID=811521"}},{"type":"Feature","geometry":{"type":"Point","coordinates":[-86.373115,39.605716]},"properties":{"name":"MORGAN COUNTY WIC PROGRAM - MOORESVILLE","assetType":"WIC","dataYear":"2014","assetId":"811531","subcategory":"Income Support and Employment","detail":"https://classic.savi.org/SAVI/PopUps/AssetMoreInfo.aspx?AssetID=811531"}},{"type":"Feature","geometry":{"type":"Point","coordinates":[-86.148462,39.71153]},"properties":{"name":"NATIONAL SQUARE WIC CLINIC","assetType":"WIC","dataYear":"2014","assetId":"811537","subcategory":"Income Support and Employment","detail":"https://classic.savi.org/SAVI/PopUps/AssetMoreInfo.aspx?AssetID=811537"}},{"type":"Feature","geometry":{"type":"Point","coordinates":[-86.064485,39.803774]},"properties":{"name":"NORTH ARLINGTON WIC","assetType":"WIC","dataYear":"2014","assetId":"811532","subcategory":"Income Support and Employment","detail":"https://classic.savi.org/SAVI/PopUps/AssetMoreInfo.aspx?AssetID=811532"}},{"type":"Feature","geometry":{"type":"Point","coordinates":[-86.208217,39.881416]},"properties":{"name":"PECAR","assetType":"WIC","dataYear":"2014","assetId":"811538","subcategory":"Income Support and Employment","detail":"https://classic.savi.org/SAVI/PopUps/AssetMoreInfo.aspx?AssetID=811538"}},{"type":"Feature","geometry":{"type":"Point","coordinates":[-86.844399,39.633613]},"properties":{"name":"PUTNAM COUNTY WIC PROGRAM","assetType":"WIC","dataYear":"2014","assetId":"811541","subcategory":"Income Support and Employment","detail":"https://classic.savi.org/SAVI/PopUps/AssetMoreInfo.aspx?AssetID=811541"}},{"type":"Feature","geometry":{"type":"Point","coordinates":[-85.775692,39.52439]},"properties":{"name":"SHELBY COUNTY WIC PROGRAM","assetType":"WIC","dataYear":"2014","assetId":"811526","subcategory":"Income Support and Employment","detail":"https://classic.savi.org/SAVI/PopUps/AssetMoreInfo.aspx?AssetID=811526"}},{"type":"Feature","geometry":{"type":"Point","coordinates":[-86.118642,39.650274]},"properties":{"name":"STOP 11 CLINIC","assetType":"WIC","dataYear":"2014","assetId":"811544","subcategory":"Income Support and Employment","detail":"https://classic.savi.org/SAVI/PopUps/AssetMoreInfo.aspx?AssetID=811544"}},{"type":"Feature","geometry":{"type":"Point","coordinates":[-86.257213,39.823096]},"properties":{"name":"WEST 38TH ST WIC","assetType":"WIC","dataYear":"2014","assetId":"811542","subcategory":"Income Support and Employment","detail":"https://classic.savi.org/SAVI/PopUps/AssetMoreInfo.aspx?AssetID=811542"}},{"type":"Feature","geometry":{"type":"Point","coordinates":[-86.206091,39.774641]},"properties":{"name":"WESTSIDE HEALTH CENTER WIC","assetType":"WIC","dataYear":"2014","assetId":"811534","subcategory":"Income Support and Employment","detail":"https://classic.savi.org/SAVI/PopUps/AssetMoreInfo.aspx?AssetID=811534"}}]}