{"type":"FeatureCollection","features":[{"type":"Feature","geometry":{"type":"Point","coordinates":[-86.15431998,39.76996152]},"properties":{"name":"IndyGo Transit Half-Fare Program","assetType":"Discount Bus Passes","dataYear":"2007","assetId":"624679","subcategory":"Transportation and Mobility","detail":"https://classic.savi.org/SAVI/PopUps/AssetMoreInfo.aspx?AssetID=624679"}},{"type":"Feature","geometry":{"type":"Point","coordinates":[-86.15431998,39.76996152]},"properties":{"name":"IndyGo Transit Half-Fare Program for Youth","assetType":"Discount Bus Passes","dataYear":"2007","assetId":"625020","subcategory":"Transportation and Mobility","detail":"https://classic.savi.org/SAVI/PopUps/AssetMoreInfo.aspx?AssetID=625020"}},{"type":"Feature","geometry":{"type":"Point","coordinates":[-86.18734884,39.76719768]},"properties":{"name":"Open Door Paratransit IndyGo","assetType":"Discount Bus Passes","dataYear":"2007","assetId":"623570","subcategory":"Transportation and Mobility","detail":"https://classic.savi.org/SAVI/PopUps/AssetMoreInfo.aspx?AssetID=623570"}},{"type":"Feature","geometry":{"type":"Point","coordinates":[-86.07860965,39.52558739]},"properties":{"name":"ACCESS Johnson County - Public Transportation","assetType":"Mass Transit Services - Bus","dataYear":"2011","assetId":"694271","subcategory":"Transportation and Mobility","detail":"https://classic.savi.org/SAVI/PopUps/AssetMoreInfo.aspx?AssetID=694271"}},{"type":"Feature","geometry":{"type":"Point","coordinates":[-86.160229,39.762178]},"properties":{"name":"Amtrak Train Station","assetType":"Mass Transit Services - Bus","dataYear":"2011","assetId":"695315","subcategory":"Transportation and Mobility","detail":"https://classic.savi.org/SAVI/PopUps/AssetMoreInfo.aspx?AssetID=695315"}},{"type":"Feature","geometry":{"type":"Point","coordinates":[-86.162109,39.781143]},"properties":{"name":"Central Indiana Commuter Services","assetType":"Mass Transit Services - Bus","dataYear":"2011","assetId":"694798","subcategory":"Transportation and Mobility","detail":"https://classic.savi.org/SAVI/PopUps/AssetMoreInfo.aspx?AssetID=694798"}},{"type":"Feature","geometry":{"type":"Point","coordinates":[-86.160229,39.762178]},"properties":{"name":"Greyhound Bus Station","assetType":"Mass Transit Services - Bus","dataYear":"2011","assetId":"695311","subcategory":"Transportation and Mobility","detail":"https://classic.savi.org/SAVI/PopUps/AssetMoreInfo.aspx?AssetID=695311"}},{"type":"Feature","geometry":{"type":"Point","coordinates":[-86.29781065,39.71413044]},"properties":{"name":"Indianapolis International Airport","assetType":"Mass Transit Services - Bus","dataYear":"2011","assetId":"695312","subcategory":"Transportation and Mobility","detail":"https://classic.savi.org/SAVI/PopUps/AssetMoreInfo.aspx?AssetID=695312"}},{"type":"Feature","geometry":{"type":"Point","coordinates":[-86.1545929,39.76752324]},"properties":{"name":"IndyGo Transit","assetType":"Mass Transit Services - Bus","dataYear":"2011","assetId":"692937","subcategory":"Transportation and Mobility","detail":"https://classic.savi.org/SAVI/PopUps/AssetMoreInfo.aspx?AssetID=692937"}},{"type":"Feature","geometry":{"type":"Point","coordinates":[-86.1545929,39.76752324]},"properties":{"name":"IndyGo Transit Half-Fare Program","assetType":"Mass Transit Services - Bus","dataYear":"2011","assetId":"692934","subcategory":"Transportation and Mobility","detail":"https://classic.savi.org/SAVI/PopUps/AssetMoreInfo.aspx?AssetID=692934"}},{"type":"Feature","geometry":{"type":"Point","coordinates":[-86.50192278,39.76763402]},"properties":{"name":"LINK Hendricks County - Public Transportation HCSS","assetType":"Mass Transit Services - Bus","dataYear":"2011","assetId":"693644","subcategory":"Transportation and Mobility","detail":"https://classic.savi.org/SAVI/PopUps/AssetMoreInfo.aspx?AssetID=693644"}},{"type":"Feature","geometry":{"type":"Point","coordinates":[-86.42832836,39.42283646]},"properties":{"name":"Morgan Co - CONNECT Morgan Co Public Transit Sycamore Svc","assetType":"Mass Transit Services - Bus","dataYear":"2011","assetId":"695104","subcategory":"Transportation and Mobility","detail":"https://classic.savi.org/SAVI/PopUps/AssetMoreInfo.aspx?AssetID=695104"}},{"type":"Feature","geometry":{"type":"Point","coordinates":[-86.04566849,40.0433052]},"properties":{"name":"Noblesville Public Transit","assetType":"Mass Transit Services - Bus","dataYear":"2011","assetId":"693977","subcategory":"Transportation and Mobility","detail":"https://classic.savi.org/SAVI/PopUps/AssetMoreInfo.aspx?AssetID=693977"}},{"type":"Feature","geometry":{"type":"Point","coordinates":[-86.17430965,39.88068324]},"properties":{"name":"ALBERT AND SARA REUBEN SENIOR AND COMMUNITY RESOURCE CENTER","assetType":"Medical Transportation","dataYear":"2013","assetId":"796789","subcategory":"Transportation and Mobility","detail":"https://classic.savi.org/SAVI/PopUps/AssetMoreInfo.aspx?AssetID=796789"}},{"type":"Feature","geometry":{"type":"Point","coordinates":[-86.40711806,39.42882542]},"properties":{"name":"AMERICAN RED CROSS - MORGAN COUNTY","assetType":"Medical Transportation","dataYear":"2013","assetId":"800246","subcategory":"Transportation and Mobility","detail":"https://classic.savi.org/SAVI/PopUps/AssetMoreInfo.aspx?AssetID=800246"}},{"type":"Feature","geometry":{"type":"Point","coordinates":[-86.1499787,39.78095796]},"properties":{"name":"AMERICAN RED CROSS OF GREATER INDIANAPOLIS - HEADQUARTERS","assetType":"Medical Transportation","dataYear":"2013","assetId":"798288","subcategory":"Transportation and Mobility","detail":"https://classic.savi.org/SAVI/PopUps/AssetMoreInfo.aspx?AssetID=798288"}},{"type":"Feature","geometry":{"type":"Point","coordinates":[-86.46823567,40.04389031]},"properties":{"name":"BOONE COUNTY CANCER SOCIETY","assetType":"Medical Transportation","dataYear":"2013","assetId":"797094","subcategory":"Transportation and Mobility","detail":"https://classic.savi.org/SAVI/PopUps/AssetMoreInfo.aspx?AssetID=797094"}},{"type":"Feature","geometry":{"type":"Point","coordinates":[-85.77773719,39.52411214]},"properties":{"name":"CANCER ASSOCIATION OF SHELBY COUNTY","assetType":"Medical Transportation","dataYear":"2013","assetId":"798817","subcategory":"Transportation and Mobility","detail":"https://classic.savi.org/SAVI/PopUps/AssetMoreInfo.aspx?AssetID=798817"}},{"type":"Feature","geometry":{"type":"Point","coordinates":[-86.1652282,39.76735702]},"properties":{"name":"DIVISION OF FAMILY RESOURCES DFR INDIANA FAMILY AND SOCIAL SER","assetType":"Medical Transportation","dataYear":"2013","assetId":"797531","subcategory":"Transportation and Mobility","detail":"https://classic.savi.org/SAVI/PopUps/AssetMoreInfo.aspx?AssetID=797531"}},{"type":"Feature","geometry":{"type":"Point","coordinates":[-85.76991408,39.81009916]},"properties":{"name":"HOME HEALTH CARE OF HANCOCK COUNTY","assetType":"Medical Transportation","dataYear":"2013","assetId":"799850","subcategory":"Transportation and Mobility","detail":"https://classic.savi.org/SAVI/PopUps/AssetMoreInfo.aspx?AssetID=799850"}},{"type":"Feature","geometry":{"type":"Point","coordinates":[-86.15821871,39.76712405]},"properties":{"name":"INDIANA STATE DEPARTMENT OF HEALTH","assetType":"Medical Transportation","dataYear":"2013","assetId":"798434","subcategory":"Transportation and Mobility","detail":"https://classic.savi.org/SAVI/PopUps/AssetMoreInfo.aspx?AssetID=798434"}},{"type":"Feature","geometry":{"type":"Point","coordinates":[-86.0437503,39.47242273]},"properties":{"name":"JOHNSON COUNTY SENIOR SERVICES","assetType":"Medical Transportation","dataYear":"2013","assetId":"799158","subcategory":"Transportation and Mobility","detail":"https://classic.savi.org/SAVI/PopUps/AssetMoreInfo.aspx?AssetID=799158"}},{"type":"Feature","geometry":{"type":"Point","coordinates":[-86.15714524,39.79076719]},"properties":{"name":"LITTLE RED DOOR CANCER AGENCY","assetType":"Medical Transportation","dataYear":"2013","assetId":"796958","subcategory":"Transportation and Mobility","detail":"https://classic.savi.org/SAVI/PopUps/AssetMoreInfo.aspx?AssetID=796958"}},{"type":"Feature","geometry":{"type":"Point","coordinates":[-86.1209286,39.66581228]},"properties":{"name":"PERRY SENIOR CITIZENS SERVICES","assetType":"Medical Transportation","dataYear":"2013","assetId":"798554","subcategory":"Transportation and Mobility","detail":"https://classic.savi.org/SAVI/PopUps/AssetMoreInfo.aspx?AssetID=798554"}},{"type":"Feature","geometry":{"type":"Point","coordinates":[-86.36478877,39.47859955]},"properties":{"name":"VETERANS SERVICE OFFICE MORGAN COUNTY","assetType":"Medical Transportation","dataYear":"2013","assetId":"800151","subcategory":"Transportation and Mobility","detail":"https://classic.savi.org/SAVI/PopUps/AssetMoreInfo.aspx?AssetID=800151"}},{"type":"Feature","geometry":{"type":"Point","coordinates":[-86.17599944,39.78084944]},"properties":{"name":"WISHARD MEMORIAL HOSPITAL","assetType":"Medical Transportation","dataYear":"2013","assetId":"796513","subcategory":"Transportation and Mobility","detail":"https://classic.savi.org/SAVI/PopUps/AssetMoreInfo.aspx?AssetID=796513"}},{"type":"Feature","geometry":{"type":"Point","coordinates":[-86.07860965,39.52558739]},"properties":{"name":"ACCESS Johnson County - Curb to Curb Transportation","assetType":"Other Automobile Transportation Programs","dataYear":"2007","assetId":"624932","subcategory":"Transportation and Mobility","detail":"https://classic.savi.org/SAVI/PopUps/AssetMoreInfo.aspx?AssetID=624932"}},{"type":"Feature","geometry":{"type":"Point","coordinates":[-86.47341269,40.07978307]},"properties":{"name":"BOONE COUNTY SENIOR SERVICES","assetType":"Senior Ride Program","dataYear":"2018","assetId":"919423","subcategory":"Transportation and Mobility","detail":"https://classic.savi.org/SAVI/PopUps/AssetMoreInfo.aspx?AssetID=919423"}},{"type":"Feature","geometry":{"type":"Point","coordinates":[-86.24037814,39.19901046]},"properties":{"name":"BROWN COUNTY COMMUNITY YMCA","assetType":"Senior Ride Program","dataYear":"2018","assetId":"917091","subcategory":"Transportation and Mobility","detail":"https://classic.savi.org/SAVI/PopUps/AssetMoreInfo.aspx?AssetID=917091"}},{"type":"Feature","geometry":{"type":"Point","coordinates":[-86.12139154,39.9095346]},"properties":{"name":"CICOA AGING & IN-HOME SOLUTIONS","assetType":"Senior Ride Program","dataYear":"2018","assetId":"917419","subcategory":"Transportation and Mobility","detail":"https://classic.savi.org/SAVI/PopUps/AssetMoreInfo.aspx?AssetID=917419"}},{"type":"Feature","geometry":{"type":"Point","coordinates":[-86.08867976,39.72182424]},"properties":{"name":"ELTON H GESHWILER SENIOR CENTER","assetType":"Senior Ride Program","dataYear":"2018","assetId":"917731","subcategory":"Transportation and Mobility","detail":"https://classic.savi.org/SAVI/PopUps/AssetMoreInfo.aspx?AssetID=917731"}},{"type":"Feature","geometry":{"type":"Point","coordinates":[-85.77416748,39.81222621]},"properties":{"name":"HANCOCK COUNTY SENIOR SERVICES","assetType":"Senior Ride Program","dataYear":"2018","assetId":"918621","subcategory":"Transportation and Mobility","detail":"https://classic.savi.org/SAVI/PopUps/AssetMoreInfo.aspx?AssetID=918621"}},{"type":"Feature","geometry":{"type":"Point","coordinates":[-86.0437914,39.47245069]},"properties":{"name":"JOHNSON COUNTY SENIOR SERVICES","assetType":"Senior Ride Program","dataYear":"2018","assetId":"917054","subcategory":"Transportation and Mobility","detail":"https://classic.savi.org/SAVI/PopUps/AssetMoreInfo.aspx?AssetID=917054"}},{"type":"Feature","geometry":{"type":"Point","coordinates":[-86.5019261,39.76763039]},"properties":{"name":"LINK - HENDRICKS COUNTY PUBLIC TRANSIT","assetType":"Senior Ride Program","dataYear":"2018","assetId":"917489","subcategory":"Transportation and Mobility","detail":"https://classic.savi.org/SAVI/PopUps/AssetMoreInfo.aspx?AssetID=917489"}},{"type":"Feature","geometry":{"type":"Point","coordinates":[-86.34793845,39.59775813]},"properties":{"name":"MOORESVILLE SENIOR CITIZENS CENTER","assetType":"Senior Ride Program","dataYear":"2018","assetId":"919355","subcategory":"Transportation and Mobility","detail":"https://classic.savi.org/SAVI/PopUps/AssetMoreInfo.aspx?AssetID=919355"}},{"type":"Feature","geometry":{"type":"Point","coordinates":[-86.42752742,39.44129927]},"properties":{"name":"MORGAN COUNTY CONNECT","assetType":"Senior Ride Program","dataYear":"2018","assetId":"920894","subcategory":"Transportation and Mobility","detail":"https://classic.savi.org/SAVI/PopUps/AssetMoreInfo.aspx?AssetID=920894"}},{"type":"Feature","geometry":{"type":"Point","coordinates":[-86.1320807,39.96426217]},"properties":{"name":"PRIMELIFE ENRICHMENT","assetType":"Senior Ride Program","dataYear":"2018","assetId":"918627","subcategory":"Transportation and Mobility","detail":"https://classic.savi.org/SAVI/PopUps/AssetMoreInfo.aspx?AssetID=918627"}},{"type":"Feature","geometry":{"type":"Point","coordinates":[-85.77349801,39.51119057]},"properties":{"name":"SHELBY SENIOR SERVICES","assetType":"Senior Ride Program","dataYear":"2018","assetId":"917673","subcategory":"Transportation and Mobility","detail":"https://classic.savi.org/SAVI/PopUps/AssetMoreInfo.aspx?AssetID=917673"}},{"type":"Feature","geometry":{"type":"Point","coordinates":[-86.01497348,40.04265126]},"properties":{"name":"SHEPHERD S CENTER OF HAMILTON COUNTY","assetType":"Senior Ride Program","dataYear":"2018","assetId":"917608","subcategory":"Transportation and Mobility","detail":"https://classic.savi.org/SAVI/PopUps/AssetMoreInfo.aspx?AssetID=917608"}},{"type":"Feature","geometry":{"type":"Point","coordinates":[-86.07860965,39.52558739]},"properties":{"name":"ACCESS Johnson County - Public Transportation","assetType":"Shuttle Services","dataYear":"2007","assetId":"625798","subcategory":"Transportation and Mobility","detail":"https://classic.savi.org/SAVI/PopUps/AssetMoreInfo.aspx?AssetID=625798"}},{"type":"Feature","geometry":{"type":"Point","coordinates":[-86.50192278,39.76763402]},"properties":{"name":"LINK Hendricks County - Public Transportation HCSS","assetType":"Shuttle Services","dataYear":"2007","assetId":"625301","subcategory":"Transportation and Mobility","detail":"https://classic.savi.org/SAVI/PopUps/AssetMoreInfo.aspx?AssetID=625301"}},{"type":"Feature","geometry":{"type":"Point","coordinates":[-86.15007545,39.77557537]},"properties":{"name":"Indianapolis Senior Center - Taxi Discount Program","assetType":"Taxi Services","dataYear":"2007","assetId":"624352","subcategory":"Transportation and Mobility","detail":"https://classic.savi.org/SAVI/PopUps/AssetMoreInfo.aspx?AssetID=624352"}},{"type":"Feature","geometry":{"type":"Point","coordinates":[-86.47341269,40.07978307]},"properties":{"name":"BOONE COUNTY SENIOR SERVICES","assetType":"Transportation For Disabled","dataYear":"2018","assetId":"919274","subcategory":"Transportation and Mobility","detail":"https://classic.savi.org/SAVI/PopUps/AssetMoreInfo.aspx?AssetID=919274"}},{"type":"Feature","geometry":{"type":"Point","coordinates":[-85.67831443,40.1049973]},"properties":{"name":"CITY OF ANDERSON TRANSIT SYSTEM CATS - TERMINAL","assetType":"Transportation For Disabled","dataYear":"2018","assetId":"920048","subcategory":"Transportation and Mobility","detail":"https://classic.savi.org/SAVI/PopUps/AssetMoreInfo.aspx?AssetID=920048"}},{"type":"Feature","geometry":{"type":"Point","coordinates":[-86.0786976,39.5256733]},"properties":{"name":"GATEWAY SERVICES OF JOHNSON COUNTY","assetType":"Transportation For Disabled","dataYear":"2018","assetId":"919263","subcategory":"Transportation and Mobility","detail":"https://classic.savi.org/SAVI/PopUps/AssetMoreInfo.aspx?AssetID=919263"}},{"type":"Feature","geometry":{"type":"Point","coordinates":[-85.77416748,39.81222621]},"properties":{"name":"HANCOCK COUNTY SENIOR SERVICES","assetType":"Transportation For Disabled","dataYear":"2018","assetId":"918678","subcategory":"Transportation and Mobility","detail":"https://classic.savi.org/SAVI/PopUps/AssetMoreInfo.aspx?AssetID=918678"}},{"type":"Feature","geometry":{"type":"Point","coordinates":[-86.18847194,39.76529055]},"properties":{"name":"INDYGO","assetType":"Transportation For Disabled","dataYear":"2018","assetId":"921329","subcategory":"Transportation and Mobility","detail":"https://classic.savi.org/SAVI/PopUps/AssetMoreInfo.aspx?AssetID=921329"}},{"type":"Feature","geometry":{"type":"Point","coordinates":[-86.04589737,40.041907]},"properties":{"name":"JANUS DEVELOPMENTAL SERVICES","assetType":"Transportation For Disabled","dataYear":"2018","assetId":"917689","subcategory":"Transportation and Mobility","detail":"https://classic.savi.org/SAVI/PopUps/AssetMoreInfo.aspx?AssetID=917689"}},{"type":"Feature","geometry":{"type":"Point","coordinates":[-86.0437914,39.47245069]},"properties":{"name":"JOHNSON COUNTY SENIOR SERVICES","assetType":"Transportation For Disabled","dataYear":"2018","assetId":"917053","subcategory":"Transportation and Mobility","detail":"https://classic.savi.org/SAVI/PopUps/AssetMoreInfo.aspx?AssetID=917053"}},{"type":"Feature","geometry":{"type":"Point","coordinates":[-86.5019261,39.76763039]},"properties":{"name":"LINK - HENDRICKS COUNTY PUBLIC TRANSIT","assetType":"Transportation For Disabled","dataYear":"2018","assetId":"917433","subcategory":"Transportation and Mobility","detail":"https://classic.savi.org/SAVI/PopUps/AssetMoreInfo.aspx?AssetID=917433"}},{"type":"Feature","geometry":{"type":"Point","coordinates":[-86.42752742,39.44129927]},"properties":{"name":"MORGAN COUNTY CONNECT","assetType":"Transportation For Disabled","dataYear":"2018","assetId":"921010","subcategory":"Transportation and Mobility","detail":"https://classic.savi.org/SAVI/PopUps/AssetMoreInfo.aspx?AssetID=921010"}},{"type":"Feature","geometry":{"type":"Point","coordinates":[-85.77349801,39.51119057]},"properties":{"name":"SHELBY SENIOR SERVICES","assetType":"Transportation For Disabled","dataYear":"2018","assetId":"917724","subcategory":"Transportation and Mobility","detail":"https://classic.savi.org/SAVI/PopUps/AssetMoreInfo.aspx?AssetID=917724"}},{"type":"Feature","geometry":{"type":"Point","coordinates":[-85.76946787,39.78353605]},"properties":{"name":"ALTERNATIVES - GREENFIELD OUTREACH OFFICE","assetType":"Transportation For Endangered People","dataYear":"2018","assetId":"922166","subcategory":"Transportation and Mobility","detail":"https://classic.savi.org/SAVI/PopUps/AssetMoreInfo.aspx?AssetID=922166"}},{"type":"Feature","geometry":{"type":"Point","coordinates":[-86.15913237,39.78656668]},"properties":{"name":"CATHOLIC CHARITIES CRISIS OFFICE","assetType":"Transportation Passes","dataYear":"2018","assetId":"922542","subcategory":"Transportation and Mobility","detail":"https://classic.savi.org/SAVI/PopUps/AssetMoreInfo.aspx?AssetID=922542"}},{"type":"Feature","geometry":{"type":"Point","coordinates":[-85.67831443,40.1049973]},"properties":{"name":"CITY OF ANDERSON TRANSIT SYSTEM CATS - TERMINAL","assetType":"Transportation Passes","dataYear":"2018","assetId":"920047","subcategory":"Transportation and Mobility","detail":"https://classic.savi.org/SAVI/PopUps/AssetMoreInfo.aspx?AssetID=920047"}},{"type":"Feature","geometry":{"type":"Point","coordinates":[-86.15442964,39.76689312]},"properties":{"name":"INDYGO - JULIA M CARSON TRANSIT CENTER","assetType":"Transportation Passes","dataYear":"2018","assetId":"921328","subcategory":"Transportation and Mobility","detail":"https://classic.savi.org/SAVI/PopUps/AssetMoreInfo.aspx?AssetID=921328"}},{"type":"Feature","geometry":{"type":"Point","coordinates":[-86.15366133,39.7730114]},"properties":{"name":"ROBERTS PARK UNITED METHODIST CHURCH","assetType":"Transportation Passes","dataYear":"2018","assetId":"919520","subcategory":"Transportation and Mobility","detail":"https://classic.savi.org/SAVI/PopUps/AssetMoreInfo.aspx?AssetID=919520"}},{"type":"Feature","geometry":{"type":"Point","coordinates":[-86.23935212,39.20629845]},"properties":{"name":"SOUTH CENTRAL COMMUNITY ACTION PROGRAM SCCAP - BROWN COUNTY","assetType":"Transportation Passes","dataYear":"2018","assetId":"917603","subcategory":"Transportation and Mobility","detail":"https://classic.savi.org/SAVI/PopUps/AssetMoreInfo.aspx?AssetID=917603"}}]}