{"type":"FeatureCollection","features":[{"type":"Feature","geometry":{"type":"Point","coordinates":[-86.468321,40.04834254]},"properties":{"name":"BOONE COUNTY CLERK - VOTER REGISTRATION OFFICE","assetType":"Voter Registration Information","dataYear":"2018","assetId":"922242","subcategory":"Government Offices","detail":"https://classic.savi.org/SAVI/PopUps/AssetMoreInfo.aspx?AssetID=922242"}},{"type":"Feature","geometry":{"type":"Point","coordinates":[-86.24636036,39.2073681]},"properties":{"name":"BROWN COUNTY CLERK","assetType":"Voter Registration Information","dataYear":"2018","assetId":"917070","subcategory":"Government Offices","detail":"https://classic.savi.org/SAVI/PopUps/AssetMoreInfo.aspx?AssetID=917070"}},{"type":"Feature","geometry":{"type":"Point","coordinates":[-86.015854,40.04608764]},"properties":{"name":"HAMILTON COUNTY CLERK","assetType":"Voter Registration Information","dataYear":"2018","assetId":"922306","subcategory":"Government Offices","detail":"https://classic.savi.org/SAVI/PopUps/AssetMoreInfo.aspx?AssetID=922306"}},{"type":"Feature","geometry":{"type":"Point","coordinates":[-85.76888708,39.78478175]},"properties":{"name":"HANCOCK COUNTY CLERK - ELECTIONS OFFICE","assetType":"Voter Registration Information","dataYear":"2018","assetId":"922239","subcategory":"Government Offices","detail":"https://classic.savi.org/SAVI/PopUps/AssetMoreInfo.aspx?AssetID=922239"}},{"type":"Feature","geometry":{"type":"Point","coordinates":[-86.52322041,39.75700956]},"properties":{"name":"HENDRICKS COUNTY CLERK - VOTER REGISTRATION OFFICE","assetType":"Voter Registration Information","dataYear":"2018","assetId":"922326","subcategory":"Government Offices","detail":"https://classic.savi.org/SAVI/PopUps/AssetMoreInfo.aspx?AssetID=922326"}},{"type":"Feature","geometry":{"type":"Point","coordinates":[-86.16356534,39.76731967]},"properties":{"name":"INDIANA ELECTION DIVISION","assetType":"Voter Registration Information","dataYear":"2018","assetId":"919542","subcategory":"Government Offices","detail":"https://classic.savi.org/SAVI/PopUps/AssetMoreInfo.aspx?AssetID=919542"}},{"type":"Feature","geometry":{"type":"Point","coordinates":[-86.05511995,39.48005817]},"properties":{"name":"JOHNSON COUNTY CLERK","assetType":"Voter Registration Information","dataYear":"2018","assetId":"922236","subcategory":"Government Offices","detail":"https://classic.savi.org/SAVI/PopUps/AssetMoreInfo.aspx?AssetID=922236"}},{"type":"Feature","geometry":{"type":"Point","coordinates":[-85.6786614,40.10748899]},"properties":{"name":"MADISON COUNTY CLERK","assetType":"Voter Registration Information","dataYear":"2018","assetId":"920244","subcategory":"Government Offices","detail":"https://classic.savi.org/SAVI/PopUps/AssetMoreInfo.aspx?AssetID=920244"}},{"type":"Feature","geometry":{"type":"Point","coordinates":[-86.15352622,39.76798043]},"properties":{"name":"MARION COUNTY CLERK - ELECTION BOARD","assetType":"Voter Registration Information","dataYear":"2018","assetId":"922001","subcategory":"Government Offices","detail":"https://classic.savi.org/SAVI/PopUps/AssetMoreInfo.aspx?AssetID=922001"}},{"type":"Feature","geometry":{"type":"Point","coordinates":[-86.42895695,39.42523923]},"properties":{"name":"MORGAN COUNTY CLERK - ELECTION BOARD","assetType":"Voter Registration Information","dataYear":"2018","assetId":"922291","subcategory":"Government Offices","detail":"https://classic.savi.org/SAVI/PopUps/AssetMoreInfo.aspx?AssetID=922291"}},{"type":"Feature","geometry":{"type":"Point","coordinates":[-85.77752804,39.52122158]},"properties":{"name":"SHELBY COUNTY CLERK","assetType":"Voter Registration Information","dataYear":"2018","assetId":"922290","subcategory":"Government Offices","detail":"https://classic.savi.org/SAVI/PopUps/AssetMoreInfo.aspx?AssetID=922290"}},{"type":"Feature","geometry":{"type":"Point","coordinates":[-86.24397901,39.207551]},"properties":{"name":"NASHVILLE TOWN OF","assetType":"Building Inspection","dataYear":"2017","assetId":"862781","subcategory":"Government Offices","detail":"https://classic.savi.org/SAVI/PopUps/AssetMoreInfo.aspx?AssetID=862781"}},{"type":"Feature","geometry":{"type":"Point","coordinates":[-86.16292665,39.82192475]},"properties":{"name":"City of Southport - Building Inspections","assetType":"Building Inspections","dataYear":"2007","assetId":"626098","subcategory":"Government Offices","detail":"https://classic.savi.org/SAVI/PopUps/AssetMoreInfo.aspx?AssetID=626098"}},{"type":"Feature","geometry":{"type":"Point","coordinates":[-85.67758692,40.10836559]},"properties":{"name":"ANDERSON CITY OF","assetType":"Construction Permits","dataYear":"2018","assetId":"920411","subcategory":"Government Offices","detail":"https://classic.savi.org/SAVI/PopUps/AssetMoreInfo.aspx?AssetID=920411"}},{"type":"Feature","geometry":{"type":"Point","coordinates":[-86.02368331,40.17606135]},"properties":{"name":"ARCADIA TOWN OF","assetType":"Construction Permits","dataYear":"2018","assetId":"919976","subcategory":"Government Offices","detail":"https://classic.savi.org/SAVI/PopUps/AssetMoreInfo.aspx?AssetID=919976"}},{"type":"Feature","geometry":{"type":"Point","coordinates":[-86.40812386,39.76364233]},"properties":{"name":"AVON TOWN OF","assetType":"Construction Permits","dataYear":"2018","assetId":"921236","subcategory":"Government Offices","detail":"https://classic.savi.org/SAVI/PopUps/AssetMoreInfo.aspx?AssetID=921236"}},{"type":"Feature","geometry":{"type":"Point","coordinates":[-86.16827724,39.52139389]},"properties":{"name":"BARGERSVILLE TOWN OF","assetType":"Construction Permits","dataYear":"2018","assetId":"920792","subcategory":"Government Offices","detail":"https://classic.savi.org/SAVI/PopUps/AssetMoreInfo.aspx?AssetID=920792"}},{"type":"Feature","geometry":{"type":"Point","coordinates":[-86.09108388,39.72179211]},"properties":{"name":"BEECH GROVE CITY OF","assetType":"Construction Permits","dataYear":"2018","assetId":"921832","subcategory":"Government Offices","detail":"https://classic.savi.org/SAVI/PopUps/AssetMoreInfo.aspx?AssetID=921832"}},{"type":"Feature","geometry":{"type":"Point","coordinates":[-86.46785508,40.04856147]},"properties":{"name":"BOONE COUNTY HEALTH DEPARTMENT","assetType":"Construction Permits","dataYear":"2018","assetId":"919783","subcategory":"Government Offices","detail":"https://classic.savi.org/SAVI/PopUps/AssetMoreInfo.aspx?AssetID=919783"}},{"type":"Feature","geometry":{"type":"Point","coordinates":[-86.24555014,39.20879249]},"properties":{"name":"BROWN COUNTY HEALTH DEPARTMENT","assetType":"Construction Permits","dataYear":"2018","assetId":"917080","subcategory":"Government Offices","detail":"https://classic.savi.org/SAVI/PopUps/AssetMoreInfo.aspx?AssetID=917080"}},{"type":"Feature","geometry":{"type":"Point","coordinates":[-86.39738757,39.84424019]},"properties":{"name":"BROWNSBURG TOWN OF","assetType":"Construction Permits","dataYear":"2018","assetId":"921206","subcategory":"Government Offices","detail":"https://classic.savi.org/SAVI/PopUps/AssetMoreInfo.aspx?AssetID=921206"}},{"type":"Feature","geometry":{"type":"Point","coordinates":[-86.12883968,39.96467929]},"properties":{"name":"CARMEL CITY OF","assetType":"Construction Permits","dataYear":"2018","assetId":"921340","subcategory":"Government Offices","detail":"https://classic.savi.org/SAVI/PopUps/AssetMoreInfo.aspx?AssetID=921340"}},{"type":"Feature","geometry":{"type":"Point","coordinates":[-86.00919174,40.13220434]},"properties":{"name":"CICERO TOWN OF","assetType":"Construction Permits","dataYear":"2018","assetId":"917360","subcategory":"Government Offices","detail":"https://classic.savi.org/SAVI/PopUps/AssetMoreInfo.aspx?AssetID=917360"}},{"type":"Feature","geometry":{"type":"Point","coordinates":[-86.52331973,39.68994127]},"properties":{"name":"CLAYTON TOWN OF","assetType":"Construction Permits","dataYear":"2018","assetId":"922068","subcategory":"Government Offices","detail":"https://classic.savi.org/SAVI/PopUps/AssetMoreInfo.aspx?AssetID=922068"}},{"type":"Feature","geometry":{"type":"Point","coordinates":[-85.96121373,39.77576102]},"properties":{"name":"CUMBERLAND TOWN OF","assetType":"Construction Permits","dataYear":"2018","assetId":"921485","subcategory":"Government Offices","detail":"https://classic.savi.org/SAVI/PopUps/AssetMoreInfo.aspx?AssetID=921485"}},{"type":"Feature","geometry":{"type":"Point","coordinates":[-86.52016202,39.76152325]},"properties":{"name":"DANVILLE TOWN OF","assetType":"Construction Permits","dataYear":"2018","assetId":"921136","subcategory":"Government Offices","detail":"https://classic.savi.org/SAVI/PopUps/AssetMoreInfo.aspx?AssetID=921136"}},{"type":"Feature","geometry":{"type":"Point","coordinates":[-85.96516639,39.35390549]},"properties":{"name":"EDINBURGH TOWN OF","assetType":"Construction Permits","dataYear":"2018","assetId":"921418","subcategory":"Government Offices","detail":"https://classic.savi.org/SAVI/PopUps/AssetMoreInfo.aspx?AssetID=921418"}},{"type":"Feature","geometry":{"type":"Point","coordinates":[-86.01709245,39.95871809]},"properties":{"name":"FISHERS CITY OF","assetType":"Construction Permits","dataYear":"2018","assetId":"921267","subcategory":"Government Offices","detail":"https://classic.savi.org/SAVI/PopUps/AssetMoreInfo.aspx?AssetID=921267"}},{"type":"Feature","geometry":{"type":"Point","coordinates":[-86.05423494,39.47973587]},"properties":{"name":"FRANKLIN CITY OF","assetType":"Construction Permits","dataYear":"2018","assetId":"921483","subcategory":"Government Offices","detail":"https://classic.savi.org/SAVI/PopUps/AssetMoreInfo.aspx?AssetID=921483"}},{"type":"Feature","geometry":{"type":"Point","coordinates":[-86.86054791,39.64402395]},"properties":{"name":"GREENCASTLE CITY OF","assetType":"Construction Permits","dataYear":"2018","assetId":"919899","subcategory":"Government Offices","detail":"https://classic.savi.org/SAVI/PopUps/AssetMoreInfo.aspx?AssetID=919899"}},{"type":"Feature","geometry":{"type":"Point","coordinates":[-85.76957548,39.78500893]},"properties":{"name":"GREENFIELD CITY OF","assetType":"Construction Permits","dataYear":"2018","assetId":"921428","subcategory":"Government Offices","detail":"https://classic.savi.org/SAVI/PopUps/AssetMoreInfo.aspx?AssetID=921428"}},{"type":"Feature","geometry":{"type":"Point","coordinates":[-86.10999506,39.61261738]},"properties":{"name":"GREENWOOD CITY OF","assetType":"Construction Permits","dataYear":"2018","assetId":"921400","subcategory":"Government Offices","detail":"https://classic.savi.org/SAVI/PopUps/AssetMoreInfo.aspx?AssetID=921400"}},{"type":"Feature","geometry":{"type":"Point","coordinates":[-85.9911682,40.04950113]},"properties":{"name":"HAMILTON COUNTY HEALTH DEPARTMENT","assetType":"Construction Permits","dataYear":"2018","assetId":"918704","subcategory":"Government Offices","detail":"https://classic.savi.org/SAVI/PopUps/AssetMoreInfo.aspx?AssetID=918704"}},{"type":"Feature","geometry":{"type":"Point","coordinates":[-86.15487064,39.75143996]},"properties":{"name":"INDIANAPOLIS DEPARTMENT OF BUSINESS AND NEIGHBORHOOD SERVICES","assetType":"Construction Permits","dataYear":"2018","assetId":"919610","subcategory":"Government Offices","detail":"https://classic.savi.org/SAVI/PopUps/AssetMoreInfo.aspx?AssetID=919610"}},{"type":"Feature","geometry":{"type":"Point","coordinates":[-86.62417924,39.9244837]},"properties":{"name":"JAMESTOWN TOWN OF","assetType":"Construction Permits","dataYear":"2018","assetId":"922091","subcategory":"Government Offices","detail":"https://classic.savi.org/SAVI/PopUps/AssetMoreInfo.aspx?AssetID=922091"}},{"type":"Feature","geometry":{"type":"Point","coordinates":[-86.05599054,39.48012402]},"properties":{"name":"JOHNSON COUNTY HEALTH DEPARTMENT","assetType":"Construction Permits","dataYear":"2018","assetId":"917258","subcategory":"Government Offices","detail":"https://classic.savi.org/SAVI/PopUps/AssetMoreInfo.aspx?AssetID=917258"}},{"type":"Feature","geometry":{"type":"Point","coordinates":[-86.00995785,39.8622057]},"properties":{"name":"LAWRENCE CITY OF","assetType":"Construction Permits","dataYear":"2018","assetId":"921590","subcategory":"Government Offices","detail":"https://classic.savi.org/SAVI/PopUps/AssetMoreInfo.aspx?AssetID=921590"}},{"type":"Feature","geometry":{"type":"Point","coordinates":[-86.46793673,40.04487327]},"properties":{"name":"LEBANON CITY OF","assetType":"Construction Permits","dataYear":"2018","assetId":"921218","subcategory":"Government Offices","detail":"https://classic.savi.org/SAVI/PopUps/AssetMoreInfo.aspx?AssetID=921218"}},{"type":"Feature","geometry":{"type":"Point","coordinates":[-85.67656845,40.10733476]},"properties":{"name":"MADISON COUNTY HEALTH DEPARTMENT","assetType":"Construction Permits","dataYear":"2018","assetId":"919985","subcategory":"Government Offices","detail":"https://classic.savi.org/SAVI/PopUps/AssetMoreInfo.aspx?AssetID=919985"}},{"type":"Feature","geometry":{"type":"Point","coordinates":[-86.42695606,39.42617428]},"properties":{"name":"MARTINSVILLE CITY OF","assetType":"Construction Permits","dataYear":"2018","assetId":"921176","subcategory":"Government Offices","detail":"https://classic.savi.org/SAVI/PopUps/AssetMoreInfo.aspx?AssetID=921176"}},{"type":"Feature","geometry":{"type":"Point","coordinates":[-85.92429517,39.89957698]},"properties":{"name":"MCCORDSVILLE TOWN OF","assetType":"Construction Permits","dataYear":"2018","assetId":"921491","subcategory":"Government Offices","detail":"https://classic.savi.org/SAVI/PopUps/AssetMoreInfo.aspx?AssetID=921491"}},{"type":"Feature","geometry":{"type":"Point","coordinates":[-86.37439365,39.61187769]},"properties":{"name":"MOORESVILLE TOWN OF","assetType":"Construction Permits","dataYear":"2018","assetId":"921410","subcategory":"Government Offices","detail":"https://classic.savi.org/SAVI/PopUps/AssetMoreInfo.aspx?AssetID=921410"}},{"type":"Feature","geometry":{"type":"Point","coordinates":[-86.42895695,39.42523923]},"properties":{"name":"MORGAN COUNTY HEALTH DEPARTMENT","assetType":"Construction Permits","dataYear":"2018","assetId":"919291","subcategory":"Government Offices","detail":"https://classic.savi.org/SAVI/PopUps/AssetMoreInfo.aspx?AssetID=919291"}},{"type":"Feature","geometry":{"type":"Point","coordinates":[-86.26219156,39.37145808]},"properties":{"name":"MORGANTOWN TOWN OF","assetType":"Construction Permits","dataYear":"2018","assetId":"919997","subcategory":"Government Offices","detail":"https://classic.savi.org/SAVI/PopUps/AssetMoreInfo.aspx?AssetID=919997"}},{"type":"Feature","geometry":{"type":"Point","coordinates":[-85.70497402,39.67551059]},"properties":{"name":"MORRISTOWN TOWN OF","assetType":"Construction Permits","dataYear":"2018","assetId":"917181","subcategory":"Government Offices","detail":"https://classic.savi.org/SAVI/PopUps/AssetMoreInfo.aspx?AssetID=917181"}},{"type":"Feature","geometry":{"type":"Point","coordinates":[-86.24398415,39.20755845]},"properties":{"name":"NASHVILLE TOWN OF","assetType":"Construction Permits","dataYear":"2018","assetId":"917077","subcategory":"Government Offices","detail":"https://classic.savi.org/SAVI/PopUps/AssetMoreInfo.aspx?AssetID=917077"}},{"type":"Feature","geometry":{"type":"Point","coordinates":[-85.886249,39.72079743]},"properties":{"name":"NEW PALESTINE TOWN OF","assetType":"Construction Permits","dataYear":"2018","assetId":"921493","subcategory":"Government Offices","detail":"https://classic.savi.org/SAVI/PopUps/AssetMoreInfo.aspx?AssetID=921493"}},{"type":"Feature","geometry":{"type":"Point","coordinates":[-86.08995862,39.56472699]},"properties":{"name":"NEW WHITELAND TOWN OF","assetType":"Construction Permits","dataYear":"2018","assetId":"921393","subcategory":"Government Offices","detail":"https://classic.savi.org/SAVI/PopUps/AssetMoreInfo.aspx?AssetID=921393"}},{"type":"Feature","geometry":{"type":"Point","coordinates":[-86.01207846,40.04534795]},"properties":{"name":"NOBLESVILLE CITY OF","assetType":"Construction Permits","dataYear":"2018","assetId":"921261","subcategory":"Government Offices","detail":"https://classic.savi.org/SAVI/PopUps/AssetMoreInfo.aspx?AssetID=921261"}},{"type":"Feature","geometry":{"type":"Point","coordinates":[-86.46817533,39.86473331]},"properties":{"name":"PITTSBORO TOWN OF","assetType":"Construction Permits","dataYear":"2018","assetId":"922083","subcategory":"Government Offices","detail":"https://classic.savi.org/SAVI/PopUps/AssetMoreInfo.aspx?AssetID=922083"}},{"type":"Feature","geometry":{"type":"Point","coordinates":[-86.40334584,39.70296105]},"properties":{"name":"PLAINFIELD TOWN OF","assetType":"Construction Permits","dataYear":"2018","assetId":"921249","subcategory":"Government Offices","detail":"https://classic.savi.org/SAVI/PopUps/AssetMoreInfo.aspx?AssetID=921249"}},{"type":"Feature","geometry":{"type":"Point","coordinates":[-86.10382654,39.35423199]},"properties":{"name":"PRINCE S LAKES TOWN OF","assetType":"Construction Permits","dataYear":"2018","assetId":"921164","subcategory":"Government Offices","detail":"https://classic.savi.org/SAVI/PopUps/AssetMoreInfo.aspx?AssetID=921164"}},{"type":"Feature","geometry":{"type":"Point","coordinates":[-86.8460895,39.6221169]},"properties":{"name":"PUTNAM COUNTY HEALTH DEPARTMENT","assetType":"Construction Permits","dataYear":"2018","assetId":"920756","subcategory":"Government Offices","detail":"https://classic.savi.org/SAVI/PopUps/AssetMoreInfo.aspx?AssetID=920756"}},{"type":"Feature","geometry":{"type":"Point","coordinates":[-85.77874002,39.52460656]},"properties":{"name":"SHELBYVILLE CITY OF","assetType":"Construction Permits","dataYear":"2018","assetId":"921230","subcategory":"Government Offices","detail":"https://classic.savi.org/SAVI/PopUps/AssetMoreInfo.aspx?AssetID=921230"}},{"type":"Feature","geometry":{"type":"Point","coordinates":[-86.22099017,40.13423676]},"properties":{"name":"SHERIDAN TOWN OF","assetType":"Construction Permits","dataYear":"2018","assetId":"920816","subcategory":"Government Offices","detail":"https://classic.savi.org/SAVI/PopUps/AssetMoreInfo.aspx?AssetID=920816"}},{"type":"Feature","geometry":{"type":"Point","coordinates":[-86.12115866,39.66627542]},"properties":{"name":"SOUTHPORT CITY OF","assetType":"Construction Permits","dataYear":"2018","assetId":"921822","subcategory":"Government Offices","detail":"https://classic.savi.org/SAVI/PopUps/AssetMoreInfo.aspx?AssetID=921822"}},{"type":"Feature","geometry":{"type":"Point","coordinates":[-86.25085354,39.78561722]},"properties":{"name":"SPEEDWAY TOWN OF","assetType":"Construction Permits","dataYear":"2018","assetId":"921892","subcategory":"Government Offices","detail":"https://classic.savi.org/SAVI/PopUps/AssetMoreInfo.aspx?AssetID=921892"}},{"type":"Feature","geometry":{"type":"Point","coordinates":[-86.60649465,40.12931005]},"properties":{"name":"THORNTOWN TOWN OF","assetType":"Construction Permits","dataYear":"2018","assetId":"921131","subcategory":"Government Offices","detail":"https://classic.savi.org/SAVI/PopUps/AssetMoreInfo.aspx?AssetID=921131"}},{"type":"Feature","geometry":{"type":"Point","coordinates":[-86.11211075,40.03726608]},"properties":{"name":"WESTFIELD CITY OF","assetType":"Construction Permits","dataYear":"2018","assetId":"921045","subcategory":"Government Offices","detail":"https://classic.savi.org/SAVI/PopUps/AssetMoreInfo.aspx?AssetID=921045"}},{"type":"Feature","geometry":{"type":"Point","coordinates":[-86.0791905,39.54978337]},"properties":{"name":"WHITELAND TOWN OF","assetType":"Construction Permits","dataYear":"2018","assetId":"920780","subcategory":"Government Offices","detail":"https://classic.savi.org/SAVI/PopUps/AssetMoreInfo.aspx?AssetID=920780"}},{"type":"Feature","geometry":{"type":"Point","coordinates":[-86.27492318,39.95141992]},"properties":{"name":"ZIONSVILLE TOWN OF","assetType":"Construction Permits","dataYear":"2018","assetId":"921373","subcategory":"Government Offices","detail":"https://classic.savi.org/SAVI/PopUps/AssetMoreInfo.aspx?AssetID=921373"}},{"type":"Feature","geometry":{"type":"Point","coordinates":[-85.67758692,40.10836559]},"properties":{"name":"ANDERSON CITY OF","assetType":"Planning and Zoning","dataYear":"2018","assetId":"920271","subcategory":"Government Offices","detail":"https://classic.savi.org/SAVI/PopUps/AssetMoreInfo.aspx?AssetID=920271"}},{"type":"Feature","geometry":{"type":"Point","coordinates":[-86.02368331,40.17606135]},"properties":{"name":"ARCADIA TOWN OF","assetType":"Planning and Zoning","dataYear":"2018","assetId":"920181","subcategory":"Government Offices","detail":"https://classic.savi.org/SAVI/PopUps/AssetMoreInfo.aspx?AssetID=920181"}},{"type":"Feature","geometry":{"type":"Point","coordinates":[-86.40812386,39.76364233]},"properties":{"name":"AVON TOWN OF","assetType":"Planning and Zoning","dataYear":"2018","assetId":"921235","subcategory":"Government Offices","detail":"https://classic.savi.org/SAVI/PopUps/AssetMoreInfo.aspx?AssetID=921235"}},{"type":"Feature","geometry":{"type":"Point","coordinates":[-86.16827724,39.52139389]},"properties":{"name":"BARGERSVILLE TOWN OF","assetType":"Planning and Zoning","dataYear":"2018","assetId":"920789","subcategory":"Government Offices","detail":"https://classic.savi.org/SAVI/PopUps/AssetMoreInfo.aspx?AssetID=920789"}},{"type":"Feature","geometry":{"type":"Point","coordinates":[-86.09108388,39.72179211]},"properties":{"name":"BEECH GROVE CITY OF","assetType":"Planning and Zoning","dataYear":"2018","assetId":"921829","subcategory":"Government Offices","detail":"https://classic.savi.org/SAVI/PopUps/AssetMoreInfo.aspx?AssetID=921829"}},{"type":"Feature","geometry":{"type":"Point","coordinates":[-86.39738757,39.84424019]},"properties":{"name":"BROWNSBURG TOWN OF","assetType":"Planning and Zoning","dataYear":"2018","assetId":"921207","subcategory":"Government Offices","detail":"https://classic.savi.org/SAVI/PopUps/AssetMoreInfo.aspx?AssetID=921207"}},{"type":"Feature","geometry":{"type":"Point","coordinates":[-86.12883968,39.96467929]},"properties":{"name":"CARMEL CITY OF","assetType":"Planning and Zoning","dataYear":"2018","assetId":"921268","subcategory":"Government Offices","detail":"https://classic.savi.org/SAVI/PopUps/AssetMoreInfo.aspx?AssetID=921268"}},{"type":"Feature","geometry":{"type":"Point","coordinates":[-86.00919174,40.13220434]},"properties":{"name":"CICERO TOWN OF","assetType":"Planning and Zoning","dataYear":"2018","assetId":"917361","subcategory":"Government Offices","detail":"https://classic.savi.org/SAVI/PopUps/AssetMoreInfo.aspx?AssetID=917361"}},{"type":"Feature","geometry":{"type":"Point","coordinates":[-86.52331973,39.68994127]},"properties":{"name":"CLAYTON TOWN OF","assetType":"Planning and Zoning","dataYear":"2018","assetId":"922069","subcategory":"Government Offices","detail":"https://classic.savi.org/SAVI/PopUps/AssetMoreInfo.aspx?AssetID=922069"}},{"type":"Feature","geometry":{"type":"Point","coordinates":[-85.96121373,39.77576102]},"properties":{"name":"CUMBERLAND TOWN OF","assetType":"Planning and Zoning","dataYear":"2018","assetId":"921484","subcategory":"Government Offices","detail":"https://classic.savi.org/SAVI/PopUps/AssetMoreInfo.aspx?AssetID=921484"}},{"type":"Feature","geometry":{"type":"Point","coordinates":[-86.52016202,39.76152325]},"properties":{"name":"DANVILLE TOWN OF","assetType":"Planning and Zoning","dataYear":"2018","assetId":"921137","subcategory":"Government Offices","detail":"https://classic.savi.org/SAVI/PopUps/AssetMoreInfo.aspx?AssetID=921137"}},{"type":"Feature","geometry":{"type":"Point","coordinates":[-85.96516639,39.35390549]},"properties":{"name":"EDINBURGH TOWN OF","assetType":"Planning and Zoning","dataYear":"2018","assetId":"921417","subcategory":"Government Offices","detail":"https://classic.savi.org/SAVI/PopUps/AssetMoreInfo.aspx?AssetID=921417"}},{"type":"Feature","geometry":{"type":"Point","coordinates":[-86.01709245,39.95871809]},"properties":{"name":"FISHERS CITY OF","assetType":"Planning and Zoning","dataYear":"2018","assetId":"921266","subcategory":"Government Offices","detail":"https://classic.savi.org/SAVI/PopUps/AssetMoreInfo.aspx?AssetID=921266"}},{"type":"Feature","geometry":{"type":"Point","coordinates":[-86.05423494,39.47973587]},"properties":{"name":"FRANKLIN CITY OF","assetType":"Planning and Zoning","dataYear":"2018","assetId":"921412","subcategory":"Government Offices","detail":"https://classic.savi.org/SAVI/PopUps/AssetMoreInfo.aspx?AssetID=921412"}},{"type":"Feature","geometry":{"type":"Point","coordinates":[-86.86054791,39.64402395]},"properties":{"name":"GREENCASTLE CITY OF","assetType":"Planning and Zoning","dataYear":"2018","assetId":"919898","subcategory":"Government Offices","detail":"https://classic.savi.org/SAVI/PopUps/AssetMoreInfo.aspx?AssetID=919898"}},{"type":"Feature","geometry":{"type":"Point","coordinates":[-85.76957548,39.78500893]},"properties":{"name":"GREENFIELD CITY OF","assetType":"Planning and Zoning","dataYear":"2018","assetId":"921429","subcategory":"Government Offices","detail":"https://classic.savi.org/SAVI/PopUps/AssetMoreInfo.aspx?AssetID=921429"}},{"type":"Feature","geometry":{"type":"Point","coordinates":[-86.10999506,39.61261738]},"properties":{"name":"GREENWOOD CITY OF","assetType":"Planning and Zoning","dataYear":"2018","assetId":"921401","subcategory":"Government Offices","detail":"https://classic.savi.org/SAVI/PopUps/AssetMoreInfo.aspx?AssetID=921401"}},{"type":"Feature","geometry":{"type":"Point","coordinates":[-86.15352622,39.76798043]},"properties":{"name":"INDIANAPOLIS OFFICE OF CORPORATION COUNSEL OCC","assetType":"Planning and Zoning","dataYear":"2018","assetId":"921840","subcategory":"Government Offices","detail":"https://classic.savi.org/SAVI/PopUps/AssetMoreInfo.aspx?AssetID=921840"}},{"type":"Feature","geometry":{"type":"Point","coordinates":[-86.62417924,39.9244837]},"properties":{"name":"JAMESTOWN TOWN OF","assetType":"Planning and Zoning","dataYear":"2018","assetId":"922089","subcategory":"Government Offices","detail":"https://classic.savi.org/SAVI/PopUps/AssetMoreInfo.aspx?AssetID=922089"}},{"type":"Feature","geometry":{"type":"Point","coordinates":[-86.00995785,39.8622057]},"properties":{"name":"LAWRENCE CITY OF","assetType":"Planning and Zoning","dataYear":"2018","assetId":"921591","subcategory":"Government Offices","detail":"https://classic.savi.org/SAVI/PopUps/AssetMoreInfo.aspx?AssetID=921591"}},{"type":"Feature","geometry":{"type":"Point","coordinates":[-86.46793673,40.04487327]},"properties":{"name":"LEBANON CITY OF","assetType":"Planning and Zoning","dataYear":"2018","assetId":"921144","subcategory":"Government Offices","detail":"https://classic.savi.org/SAVI/PopUps/AssetMoreInfo.aspx?AssetID=921144"}},{"type":"Feature","geometry":{"type":"Point","coordinates":[-86.42695606,39.42617428]},"properties":{"name":"MARTINSVILLE CITY OF","assetType":"Planning and Zoning","dataYear":"2018","assetId":"921175","subcategory":"Government Offices","detail":"https://classic.savi.org/SAVI/PopUps/AssetMoreInfo.aspx?AssetID=921175"}},{"type":"Feature","geometry":{"type":"Point","coordinates":[-85.92429517,39.89957698]},"properties":{"name":"MCCORDSVILLE TOWN OF","assetType":"Planning and Zoning","dataYear":"2018","assetId":"921492","subcategory":"Government Offices","detail":"https://classic.savi.org/SAVI/PopUps/AssetMoreInfo.aspx?AssetID=921492"}},{"type":"Feature","geometry":{"type":"Point","coordinates":[-86.37439365,39.61187769]},"properties":{"name":"MOORESVILLE TOWN OF","assetType":"Planning and Zoning","dataYear":"2018","assetId":"921411","subcategory":"Government Offices","detail":"https://classic.savi.org/SAVI/PopUps/AssetMoreInfo.aspx?AssetID=921411"}},{"type":"Feature","geometry":{"type":"Point","coordinates":[-86.26219156,39.37145808]},"properties":{"name":"MORGANTOWN TOWN OF","assetType":"Planning and Zoning","dataYear":"2018","assetId":"920553","subcategory":"Government Offices","detail":"https://classic.savi.org/SAVI/PopUps/AssetMoreInfo.aspx?AssetID=920553"}},{"type":"Feature","geometry":{"type":"Point","coordinates":[-85.70497402,39.67551059]},"properties":{"name":"MORRISTOWN TOWN OF","assetType":"Planning and Zoning","dataYear":"2018","assetId":"917182","subcategory":"Government Offices","detail":"https://classic.savi.org/SAVI/PopUps/AssetMoreInfo.aspx?AssetID=917182"}},{"type":"Feature","geometry":{"type":"Point","coordinates":[-86.24398415,39.20755845]},"properties":{"name":"NASHVILLE TOWN OF","assetType":"Planning and Zoning","dataYear":"2018","assetId":"917078","subcategory":"Government Offices","detail":"https://classic.savi.org/SAVI/PopUps/AssetMoreInfo.aspx?AssetID=917078"}},{"type":"Feature","geometry":{"type":"Point","coordinates":[-85.886249,39.72079743]},"properties":{"name":"NEW PALESTINE TOWN OF","assetType":"Planning and Zoning","dataYear":"2018","assetId":"921597","subcategory":"Government Offices","detail":"https://classic.savi.org/SAVI/PopUps/AssetMoreInfo.aspx?AssetID=921597"}},{"type":"Feature","geometry":{"type":"Point","coordinates":[-86.08995862,39.56472699]},"properties":{"name":"NEW WHITELAND TOWN OF","assetType":"Planning and Zoning","dataYear":"2018","assetId":"921240","subcategory":"Government Offices","detail":"https://classic.savi.org/SAVI/PopUps/AssetMoreInfo.aspx?AssetID=921240"}},{"type":"Feature","geometry":{"type":"Point","coordinates":[-86.01207846,40.04534795]},"properties":{"name":"NOBLESVILLE CITY OF","assetType":"Planning and Zoning","dataYear":"2018","assetId":"921262","subcategory":"Government Offices","detail":"https://classic.savi.org/SAVI/PopUps/AssetMoreInfo.aspx?AssetID=921262"}},{"type":"Feature","geometry":{"type":"Point","coordinates":[-86.46817533,39.86473331]},"properties":{"name":"PITTSBORO TOWN OF","assetType":"Planning and Zoning","dataYear":"2018","assetId":"922084","subcategory":"Government Offices","detail":"https://classic.savi.org/SAVI/PopUps/AssetMoreInfo.aspx?AssetID=922084"}},{"type":"Feature","geometry":{"type":"Point","coordinates":[-86.40334584,39.70296105]},"properties":{"name":"PLAINFIELD TOWN OF","assetType":"Planning and Zoning","dataYear":"2018","assetId":"921250","subcategory":"Government Offices","detail":"https://classic.savi.org/SAVI/PopUps/AssetMoreInfo.aspx?AssetID=921250"}},{"type":"Feature","geometry":{"type":"Point","coordinates":[-86.10382654,39.35423199]},"properties":{"name":"PRINCE S LAKES TOWN OF","assetType":"Planning and Zoning","dataYear":"2018","assetId":"921168","subcategory":"Government Offices","detail":"https://classic.savi.org/SAVI/PopUps/AssetMoreInfo.aspx?AssetID=921168"}},{"type":"Feature","geometry":{"type":"Point","coordinates":[-85.77874002,39.52460656]},"properties":{"name":"SHELBYVILLE CITY OF","assetType":"Planning and Zoning","dataYear":"2018","assetId":"921231","subcategory":"Government Offices","detail":"https://classic.savi.org/SAVI/PopUps/AssetMoreInfo.aspx?AssetID=921231"}},{"type":"Feature","geometry":{"type":"Point","coordinates":[-86.22099017,40.13423676]},"properties":{"name":"SHERIDAN TOWN OF","assetType":"Planning and Zoning","dataYear":"2018","assetId":"920817","subcategory":"Government Offices","detail":"https://classic.savi.org/SAVI/PopUps/AssetMoreInfo.aspx?AssetID=920817"}},{"type":"Feature","geometry":{"type":"Point","coordinates":[-86.12115866,39.66627542]},"properties":{"name":"SOUTHPORT CITY OF","assetType":"Planning and Zoning","dataYear":"2018","assetId":"921823","subcategory":"Government Offices","detail":"https://classic.savi.org/SAVI/PopUps/AssetMoreInfo.aspx?AssetID=921823"}},{"type":"Feature","geometry":{"type":"Point","coordinates":[-86.25085354,39.78561722]},"properties":{"name":"SPEEDWAY TOWN OF","assetType":"Planning and Zoning","dataYear":"2018","assetId":"921893","subcategory":"Government Offices","detail":"https://classic.savi.org/SAVI/PopUps/AssetMoreInfo.aspx?AssetID=921893"}},{"type":"Feature","geometry":{"type":"Point","coordinates":[-86.60649465,40.12931005]},"properties":{"name":"THORNTOWN TOWN OF","assetType":"Planning and Zoning","dataYear":"2018","assetId":"921129","subcategory":"Government Offices","detail":"https://classic.savi.org/SAVI/PopUps/AssetMoreInfo.aspx?AssetID=921129"}},{"type":"Feature","geometry":{"type":"Point","coordinates":[-86.11211075,40.03726608]},"properties":{"name":"WESTFIELD CITY OF","assetType":"Planning and Zoning","dataYear":"2018","assetId":"921046","subcategory":"Government Offices","detail":"https://classic.savi.org/SAVI/PopUps/AssetMoreInfo.aspx?AssetID=921046"}},{"type":"Feature","geometry":{"type":"Point","coordinates":[-86.0791905,39.54978337]},"properties":{"name":"WHITELAND TOWN OF","assetType":"Planning and Zoning","dataYear":"2018","assetId":"920783","subcategory":"Government Offices","detail":"https://classic.savi.org/SAVI/PopUps/AssetMoreInfo.aspx?AssetID=920783"}},{"type":"Feature","geometry":{"type":"Point","coordinates":[-86.27492318,39.95141992]},"properties":{"name":"ZIONSVILLE TOWN OF","assetType":"Planning and Zoning","dataYear":"2018","assetId":"921306","subcategory":"Government Offices","detail":"https://classic.savi.org/SAVI/PopUps/AssetMoreInfo.aspx?AssetID=921306"}},{"type":"Feature","geometry":{"type":"Point","coordinates":[-86.02044644,40.0379046]},"properties":{"name":"City of Noblesville - Wastewater Utility","assetType":"Sanitation Services","dataYear":"2007","assetId":"626147","subcategory":"Government Offices","detail":"https://classic.savi.org/SAVI/PopUps/AssetMoreInfo.aspx?AssetID=626147"}},{"type":"Feature","geometry":{"type":"Point","coordinates":[-86.1582286,39.76705658]},"properties":{"name":"Indiana Dept of Health - Sanitary Engineering","assetType":"Sanitation Services","dataYear":"2007","assetId":"624690","subcategory":"Government Offices","detail":"https://classic.savi.org/SAVI/PopUps/AssetMoreInfo.aspx?AssetID=624690"}},{"type":"Feature","geometry":{"type":"Point","coordinates":[-86.16114651,39.7667531]},"properties":{"name":"INDIANA DEPARTMENT OF EDUCATION","assetType":"Assets_4_51_230__","dataYear":"","assetId":"922123","subcategory":"Government Offices","detail":"https://classic.savi.org/SAVI/PopUps/AssetMoreInfo.aspx?AssetID=922123"}},{"type":"Feature","geometry":{"type":"Point","coordinates":[-86.16356534,39.76731967]},"properties":{"name":"INDIANA ELECTION DIVISION","assetType":"Assets_4_51_230__","dataYear":"","assetId":"919541","subcategory":"Government Offices","detail":"https://classic.savi.org/SAVI/PopUps/AssetMoreInfo.aspx?AssetID=919541"}},{"type":"Feature","geometry":{"type":"Point","coordinates":[-86.16177871,39.76728053]},"properties":{"name":"INDIANA OFFICE OF THE GOVERNOR","assetType":"Assets_4_51_230__","dataYear":"","assetId":"917177","subcategory":"Government Offices","detail":"https://classic.savi.org/SAVI/PopUps/AssetMoreInfo.aspx?AssetID=917177"}},{"type":"Feature","geometry":{"type":"Point","coordinates":[-86.16264135,39.76863978]},"properties":{"name":"INDIANA SECRETARY OF STATE","assetType":"Assets_4_51_230__","dataYear":"","assetId":"919543","subcategory":"Government Offices","detail":"https://classic.savi.org/SAVI/PopUps/AssetMoreInfo.aspx?AssetID=919543"}},{"type":"Feature","geometry":{"type":"Point","coordinates":[-86.15831983,39.76738603]},"properties":{"name":"Indiana State Department of Health","assetType":"Assets_4_51_230__","dataYear":"","assetId":"923598","subcategory":"Government Offices","detail":"https://classic.savi.org/SAVI/PopUps/AssetMoreInfo.aspx?AssetID=923598"}},{"type":"Feature","geometry":{"type":"Point","coordinates":[-86.04541731,39.80381172]},"properties":{"name":"Shadeland Ave Offices","assetType":"Assets_4_51_230__","dataYear":"","assetId":"924308","subcategory":"Government Offices","detail":"https://classic.savi.org/SAVI/PopUps/AssetMoreInfo.aspx?AssetID=924308"}},{"type":"Feature","geometry":{"type":"Point","coordinates":[-86.16987422,39.78873551]},"properties":{"name":"State Laboratories","assetType":"Assets_4_51_230__","dataYear":"","assetId":"925265","subcategory":"Government Offices","detail":"https://classic.savi.org/SAVI/PopUps/AssetMoreInfo.aspx?AssetID=925265"}},{"type":"Feature","geometry":{"type":"Point","coordinates":[-86.470833,40.056566]},"properties":{"name":"Center Township Trustee Boone County","assetType":"Boone County Trustees","dataYear":"2007","assetId":"623853","subcategory":"Government Offices","detail":"https://classic.savi.org/SAVI/PopUps/AssetMoreInfo.aspx?AssetID=623853"}},{"type":"Feature","geometry":{"type":"Point","coordinates":[-86.43499306,40.1262679]},"properties":{"name":"Clinton Township Trustee Boone County","assetType":"Boone County Trustees","dataYear":"2007","assetId":"623854","subcategory":"Government Offices","detail":"https://classic.savi.org/SAVI/PopUps/AssetMoreInfo.aspx?AssetID=623854"}},{"type":"Feature","geometry":{"type":"Point","coordinates":[-86.26154501,39.95072056]},"properties":{"name":"Eagle Township Trustee Boone County","assetType":"Boone County Trustees","dataYear":"2007","assetId":"623852","subcategory":"Government Offices","detail":"https://classic.savi.org/SAVI/PopUps/AssetMoreInfo.aspx?AssetID=623852"}},{"type":"Feature","geometry":{"type":"Point","coordinates":[-86.51193351,39.96129764]},"properties":{"name":"Harrison Township Trustee Boone County","assetType":"Boone County Trustees","dataYear":"2007","assetId":"624161","subcategory":"Government Offices","detail":"https://classic.savi.org/SAVI/PopUps/AssetMoreInfo.aspx?AssetID=624161"}},{"type":"Feature","geometry":{"type":"Point","coordinates":[-86.643636,39.932437]},"properties":{"name":"Jackson Township Trustee Boone County","assetType":"Boone County Trustees","dataYear":"2007","assetId":"623849","subcategory":"Government Offices","detail":"https://classic.savi.org/SAVI/PopUps/AssetMoreInfo.aspx?AssetID=623849"}},{"type":"Feature","geometry":{"type":"Point","coordinates":[-86.58436094,40.03202901]},"properties":{"name":"Jefferson Township Trustee Boone County","assetType":"Boone County Trustees","dataYear":"2007","assetId":"624162","subcategory":"Government Offices","detail":"https://classic.savi.org/SAVI/PopUps/AssetMoreInfo.aspx?AssetID=624162"}},{"type":"Feature","geometry":{"type":"Point","coordinates":[-86.242014,40.129251]},"properties":{"name":"Marion Township Trustee Boone County","assetType":"Boone County Trustees","dataYear":"2007","assetId":"623851","subcategory":"Government Offices","detail":"https://classic.savi.org/SAVI/PopUps/AssetMoreInfo.aspx?AssetID=623851"}},{"type":"Feature","geometry":{"type":"Point","coordinates":[-86.39784937,39.94942654]},"properties":{"name":"Perry Township Trustee Boone County","assetType":"Boone County Trustees","dataYear":"2007","assetId":"623848","subcategory":"Government Offices","detail":"https://classic.savi.org/SAVI/PopUps/AssetMoreInfo.aspx?AssetID=623848"}},{"type":"Feature","geometry":{"type":"Point","coordinates":[-86.60477595,40.13175144]},"properties":{"name":"Sugar Creek Township Trustee Boone County","assetType":"Boone County Trustees","dataYear":"2007","assetId":"623850","subcategory":"Government Offices","detail":"https://classic.savi.org/SAVI/PopUps/AssetMoreInfo.aspx?AssetID=623850"}},{"type":"Feature","geometry":{"type":"Point","coordinates":[-86.2881264,40.05561432]},"properties":{"name":"Union Township Trustee Boone County","assetType":"Boone County Trustees","dataYear":"2007","assetId":"623847","subcategory":"Government Offices","detail":"https://classic.savi.org/SAVI/PopUps/AssetMoreInfo.aspx?AssetID=623847"}},{"type":"Feature","geometry":{"type":"Point","coordinates":[-86.48976389,40.15543435]},"properties":{"name":"Washington Township Trustee Boone County","assetType":"Boone County Trustees","dataYear":"2007","assetId":"624202","subcategory":"Government Offices","detail":"https://classic.savi.org/SAVI/PopUps/AssetMoreInfo.aspx?AssetID=624202"}},{"type":"Feature","geometry":{"type":"Point","coordinates":[-86.22048409,40.13704879]},"properties":{"name":"Adams Township Trustee Assessor Hamilton County","assetType":"Hamilton County Trustees","dataYear":"2007","assetId":"623855","subcategory":"Government Offices","detail":"https://classic.savi.org/SAVI/PopUps/AssetMoreInfo.aspx?AssetID=623855"}},{"type":"Feature","geometry":{"type":"Point","coordinates":[-86.14578451,39.94313319]},"properties":{"name":"Clay Township Trustee Hamilton County","assetType":"Hamilton County Trustees","dataYear":"2007","assetId":"623856","subcategory":"Government Offices","detail":"https://classic.savi.org/SAVI/PopUps/AssetMoreInfo.aspx?AssetID=623856"}},{"type":"Feature","geometry":{"type":"Point","coordinates":[-86.00938317,39.97911181]},"properties":{"name":"Delaware Township Trustee Hamilton County","assetType":"Hamilton County Trustees","dataYear":"2007","assetId":"623857","subcategory":"Government Offices","detail":"https://classic.savi.org/SAVI/PopUps/AssetMoreInfo.aspx?AssetID=623857"}},{"type":"Feature","geometry":{"type":"Point","coordinates":[-85.942405,39.957399]},"properties":{"name":"Fall Creek Township Trustee Hamilton County","assetType":"Hamilton County Trustees","dataYear":"2007","assetId":"623858","subcategory":"Government Offices","detail":"https://classic.savi.org/SAVI/PopUps/AssetMoreInfo.aspx?AssetID=623858"}},{"type":"Feature","geometry":{"type":"Point","coordinates":[-86.0283135,40.17623467]},"properties":{"name":"Jackson Township Trustee Hamilton County","assetType":"Hamilton County Trustees","dataYear":"2007","assetId":"623859","subcategory":"Government Offices","detail":"https://classic.savi.org/SAVI/PopUps/AssetMoreInfo.aspx?AssetID=623859"}},{"type":"Feature","geometry":{"type":"Point","coordinates":[-86.01418453,40.04241306]},"properties":{"name":"Noblesville Township Trustee Hamilton County","assetType":"Hamilton County Trustees","dataYear":"2007","assetId":"623860","subcategory":"Government Offices","detail":"https://classic.savi.org/SAVI/PopUps/AssetMoreInfo.aspx?AssetID=623860"}},{"type":"Feature","geometry":{"type":"Point","coordinates":[-86.12997735,40.00524559]},"properties":{"name":"Washington Township Trustee Hamilton County","assetType":"Hamilton County Trustees","dataYear":"2007","assetId":"623861","subcategory":"Government Offices","detail":"https://classic.savi.org/SAVI/PopUps/AssetMoreInfo.aspx?AssetID=623861"}},{"type":"Feature","geometry":{"type":"Point","coordinates":[-85.91812489,40.08839992]},"properties":{"name":"Wayne Township Trustee Assessor - Hamilton County Government","assetType":"Hamilton County Trustees","dataYear":"2007","assetId":"626132","subcategory":"Government Offices","detail":"https://classic.savi.org/SAVI/PopUps/AssetMoreInfo.aspx?AssetID=626132"}},{"type":"Feature","geometry":{"type":"Point","coordinates":[-85.92187788,40.21824365]},"properties":{"name":"White River Township Trustee Hamilton County","assetType":"Hamilton County Trustees","dataYear":"2007","assetId":"623862","subcategory":"Government Offices","detail":"https://classic.savi.org/SAVI/PopUps/AssetMoreInfo.aspx?AssetID=623862"}},{"type":"Feature","geometry":{"type":"Point","coordinates":[-85.72646822,39.73571329]},"properties":{"name":"Brandywine Township Trustee Hancock County","assetType":"Hancock County Trustees","dataYear":"2007","assetId":"623863","subcategory":"Government Offices","detail":"https://classic.savi.org/SAVI/PopUps/AssetMoreInfo.aspx?AssetID=623863"}},{"type":"Feature","geometry":{"type":"Point","coordinates":[-85.62357108,39.89873194]},"properties":{"name":"Brown Township Trustee Hancock County","assetType":"Hancock County Trustees","dataYear":"2007","assetId":"624298","subcategory":"Government Offices","detail":"https://classic.savi.org/SAVI/PopUps/AssetMoreInfo.aspx?AssetID=624298"}},{"type":"Feature","geometry":{"type":"Point","coordinates":[-85.91523993,39.83071374]},"properties":{"name":"Buck Creek Township Trustee Hancock County","assetType":"Hancock County Trustees","dataYear":"2007","assetId":"623864","subcategory":"Government Offices","detail":"https://classic.savi.org/SAVI/PopUps/AssetMoreInfo.aspx?AssetID=623864"}},{"type":"Feature","geometry":{"type":"Point","coordinates":[-85.77148998,39.80413172]},"properties":{"name":"Center Township Trustee Hancock County","assetType":"Hancock County Trustees","dataYear":"2007","assetId":"623865","subcategory":"Government Offices","detail":"https://classic.savi.org/SAVI/PopUps/AssetMoreInfo.aspx?AssetID=623865"}},{"type":"Feature","geometry":{"type":"Point","coordinates":[-85.72690267,39.90293099]},"properties":{"name":"Green Township Trustee Hancock County","assetType":"Hancock County Trustees","dataYear":"2007","assetId":"623866","subcategory":"Government Offices","detail":"https://classic.savi.org/SAVI/PopUps/AssetMoreInfo.aspx?AssetID=623866"}},{"type":"Feature","geometry":{"type":"Point","coordinates":[-85.60297934,39.81595656]},"properties":{"name":"Jackson Township Trustee Hancock County","assetType":"Hancock County Trustees","dataYear":"2007","assetId":"623867","subcategory":"Government Offices","detail":"https://classic.savi.org/SAVI/PopUps/AssetMoreInfo.aspx?AssetID=623867"}},{"type":"Feature","geometry":{"type":"Point","coordinates":[-85.91371507,39.73162598]},"properties":{"name":"Sugar Creek Township Trustee Hancock County","assetType":"Hancock County Trustees","dataYear":"2007","assetId":"623868","subcategory":"Government Offices","detail":"https://classic.savi.org/SAVI/PopUps/AssetMoreInfo.aspx?AssetID=623868"}},{"type":"Feature","geometry":{"type":"Point","coordinates":[-85.85008365,39.9339765]},"properties":{"name":"Vernon Township Trustee Hancock County","assetType":"Hancock County Trustees","dataYear":"2007","assetId":"624805","subcategory":"Government Offices","detail":"https://classic.savi.org/SAVI/PopUps/AssetMoreInfo.aspx?AssetID=624805"}},{"type":"Feature","geometry":{"type":"Point","coordinates":[-86.39254885,39.90908061]},"properties":{"name":"Brown Township Trustee Hendricks County","assetType":"Hendricks County Trustees","dataYear":"2007","assetId":"623869","subcategory":"Government Offices","detail":"https://classic.savi.org/SAVI/PopUps/AssetMoreInfo.aspx?AssetID=623869"}},{"type":"Feature","geometry":{"type":"Point","coordinates":[-86.52353872,39.75958198]},"properties":{"name":"Center Township Trustee Hendricks County","assetType":"Hendricks County Trustees","dataYear":"2007","assetId":"624299","subcategory":"Government Offices","detail":"https://classic.savi.org/SAVI/PopUps/AssetMoreInfo.aspx?AssetID=624299"}},{"type":"Feature","geometry":{"type":"Point","coordinates":[-86.64382324,39.85992201]},"properties":{"name":"Eel River Township Trustee Hendricks County","assetType":"Hendricks County Trustees","dataYear":"2007","assetId":"623871","subcategory":"Government Offices","detail":"https://classic.savi.org/SAVI/PopUps/AssetMoreInfo.aspx?AssetID=623871"}},{"type":"Feature","geometry":{"type":"Point","coordinates":[-86.38975002,39.68327668]},"properties":{"name":"Guilford Township Trustee Hendricks County","assetType":"Hendricks County Trustees","dataYear":"2007","assetId":"623873","subcategory":"Government Offices","detail":"https://classic.savi.org/SAVI/PopUps/AssetMoreInfo.aspx?AssetID=623873"}},{"type":"Feature","geometry":{"type":"Point","coordinates":[-86.52499947,39.61452683]},"properties":{"name":"Liberty Township Trustee Hendricks County","assetType":"Hendricks County Trustees","dataYear":"2007","assetId":"623874","subcategory":"Government Offices","detail":"https://classic.savi.org/SAVI/PopUps/AssetMoreInfo.aspx?AssetID=623874"}},{"type":"Feature","geometry":{"type":"Point","coordinates":[-86.39630078,39.84273296]},"properties":{"name":"Lincoln Township Trustee Hendricks County","assetType":"Hendricks County Trustees","dataYear":"2007","assetId":"623875","subcategory":"Government Offices","detail":"https://classic.savi.org/SAVI/PopUps/AssetMoreInfo.aspx?AssetID=623875"}},{"type":"Feature","geometry":{"type":"Point","coordinates":[-86.65073866,39.75979663]},"properties":{"name":"Marion Township Trustee Hendricks County","assetType":"Hendricks County Trustees","dataYear":"2007","assetId":"624300","subcategory":"Government Offices","detail":"https://classic.savi.org/SAVI/PopUps/AssetMoreInfo.aspx?AssetID=624300"}},{"type":"Feature","geometry":{"type":"Point","coordinates":[-86.46668507,39.86437042]},"properties":{"name":"Middle Township Trustee Hendricks County","assetType":"Hendricks County Trustees","dataYear":"2007","assetId":"623876","subcategory":"Government Offices","detail":"https://classic.savi.org/SAVI/PopUps/AssetMoreInfo.aspx?AssetID=623876"}},{"type":"Feature","geometry":{"type":"Point","coordinates":[-86.54642532,39.88512447]},"properties":{"name":"Union Township Trustee Hendricks County","assetType":"Hendricks County Trustees","dataYear":"2007","assetId":"623877","subcategory":"Government Offices","detail":"https://classic.savi.org/SAVI/PopUps/AssetMoreInfo.aspx?AssetID=623877"}},{"type":"Feature","geometry":{"type":"Point","coordinates":[-85.96560241,39.35350605]},"properties":{"name":"Blue River Township Trustee Johnson County","assetType":"Johnson County Trustees","dataYear":"2007","assetId":"624324","subcategory":"Government Offices","detail":"https://classic.savi.org/SAVI/PopUps/AssetMoreInfo.aspx?AssetID=624324"}},{"type":"Feature","geometry":{"type":"Point","coordinates":[-86.05739058,39.48064883]},"properties":{"name":"Franklin Township Trustee Johnson County","assetType":"Johnson County Trustees","dataYear":"2007","assetId":"623880","subcategory":"Government Offices","detail":"https://classic.savi.org/SAVI/PopUps/AssetMoreInfo.aspx?AssetID=623880"}},{"type":"Feature","geometry":{"type":"Point","coordinates":[-86.218471,39.39565]},"properties":{"name":"Hensley Township Trustee Assessor Johnson County","assetType":"Johnson County Trustees","dataYear":"2007","assetId":"624325","subcategory":"Government Offices","detail":"https://classic.savi.org/SAVI/PopUps/AssetMoreInfo.aspx?AssetID=624325"}},{"type":"Feature","geometry":{"type":"Point","coordinates":[-86.05562474,39.48064045]},"properties":{"name":"Needham Township Trustee Assessor Johnson County","assetType":"Johnson County Trustees","dataYear":"2007","assetId":"623913","subcategory":"Government Offices","detail":"https://classic.savi.org/SAVI/PopUps/AssetMoreInfo.aspx?AssetID=623913"}},{"type":"Feature","geometry":{"type":"Point","coordinates":[-86.06437131,39.41054972]},"properties":{"name":"Nineveh Township Trustee Assessor Johnson County","assetType":"Johnson County Trustees","dataYear":"2007","assetId":"623912","subcategory":"Government Offices","detail":"https://classic.savi.org/SAVI/PopUps/AssetMoreInfo.aspx?AssetID=623912"}},{"type":"Feature","geometry":{"type":"Point","coordinates":[-86.0789101,39.5513644]},"properties":{"name":"Pleasant Township Trustee Johnson County","assetType":"Johnson County Trustees","dataYear":"2007","assetId":"623910","subcategory":"Government Offices","detail":"https://classic.savi.org/SAVI/PopUps/AssetMoreInfo.aspx?AssetID=623910"}},{"type":"Feature","geometry":{"type":"Point","coordinates":[-86.21165925,39.50260766]},"properties":{"name":"Union Township Trustee Assessor Johnson County","assetType":"Johnson County Trustees","dataYear":"2007","assetId":"623911","subcategory":"Government Offices","detail":"https://classic.savi.org/SAVI/PopUps/AssetMoreInfo.aspx?AssetID=623911"}},{"type":"Feature","geometry":{"type":"Point","coordinates":[-86.19970784,39.60385471]},"properties":{"name":"White River Township Trustee Johnson County","assetType":"Johnson County Trustees","dataYear":"2007","assetId":"624326","subcategory":"Government Offices","detail":"https://classic.savi.org/SAVI/PopUps/AssetMoreInfo.aspx?AssetID=624326"}},{"type":"Feature","geometry":{"type":"Point","coordinates":[-86.14293475,39.77902733]},"properties":{"name":"Center Township Trustee Marion County","assetType":"Marion County Trustees","dataYear":"2007","assetId":"623537","subcategory":"Government Offices","detail":"https://classic.savi.org/SAVI/PopUps/AssetMoreInfo.aspx?AssetID=623537"}},{"type":"Feature","geometry":{"type":"Point","coordinates":[-86.26947971,39.6858721]},"properties":{"name":"Decatur Township Trustee Marion County","assetType":"Marion County Trustees","dataYear":"2007","assetId":"623538","subcategory":"Government Offices","detail":"https://classic.savi.org/SAVI/PopUps/AssetMoreInfo.aspx?AssetID=623538"}},{"type":"Feature","geometry":{"type":"Point","coordinates":[-86.06336163,39.67763664]},"properties":{"name":"Franklin Township Trustee Marion County","assetType":"Marion County Trustees","dataYear":"2007","assetId":"623539","subcategory":"Government Offices","detail":"https://classic.savi.org/SAVI/PopUps/AssetMoreInfo.aspx?AssetID=623539"}},{"type":"Feature","geometry":{"type":"Point","coordinates":[-86.01045671,39.86251401]},"properties":{"name":"Lawrence Township Trustee Marion County","assetType":"Marion County Trustees","dataYear":"2007","assetId":"623595","subcategory":"Government Offices","detail":"https://classic.savi.org/SAVI/PopUps/AssetMoreInfo.aspx?AssetID=623595"}},{"type":"Feature","geometry":{"type":"Point","coordinates":[-86.13913942,39.69439255]},"properties":{"name":"Perry Township Trustee Marion County","assetType":"Marion County Trustees","dataYear":"2007","assetId":"623625","subcategory":"Government Offices","detail":"https://classic.savi.org/SAVI/PopUps/AssetMoreInfo.aspx?AssetID=623625"}},{"type":"Feature","geometry":{"type":"Point","coordinates":[-86.26439347,39.8542316]},"properties":{"name":"Pike Township Trustee Marion County","assetType":"Marion County Trustees","dataYear":"2007","assetId":"623540","subcategory":"Government Offices","detail":"https://classic.savi.org/SAVI/PopUps/AssetMoreInfo.aspx?AssetID=623540"}},{"type":"Feature","geometry":{"type":"Point","coordinates":[-86.14293475,39.77902733]},"properties":{"name":"WAF - Center Township Trustee HH","assetType":"Marion County Trustees","dataYear":"2007","assetId":"625682","subcategory":"Government Offices","detail":"https://classic.savi.org/SAVI/PopUps/AssetMoreInfo.aspx?AssetID=625682"}},{"type":"Feature","geometry":{"type":"Point","coordinates":[-86.26947971,39.6858721]},"properties":{"name":"WAF - Decatur Township Trustee Marion County HH","assetType":"Marion County Trustees","dataYear":"2007","assetId":"626208","subcategory":"Government Offices","detail":"https://classic.savi.org/SAVI/PopUps/AssetMoreInfo.aspx?AssetID=626208"}},{"type":"Feature","geometry":{"type":"Point","coordinates":[-86.01045671,39.86251401]},"properties":{"name":"WAF - Lawrence Township Trustee HH","assetType":"Marion County Trustees","dataYear":"2007","assetId":"625683","subcategory":"Government Offices","detail":"https://classic.savi.org/SAVI/PopUps/AssetMoreInfo.aspx?AssetID=625683"}},{"type":"Feature","geometry":{"type":"Point","coordinates":[-86.13913942,39.69439255]},"properties":{"name":"WAF - Perry Township Trustee Marion County HH","assetType":"Marion County Trustees","dataYear":"2007","assetId":"626209","subcategory":"Government Offices","detail":"https://classic.savi.org/SAVI/PopUps/AssetMoreInfo.aspx?AssetID=626209"}},{"type":"Feature","geometry":{"type":"Point","coordinates":[-86.26459858,39.85430374]},"properties":{"name":"WAF - Pike Township Trustee Marion County HH","assetType":"Marion County Trustees","dataYear":"2007","assetId":"626210","subcategory":"Government Offices","detail":"https://classic.savi.org/SAVI/PopUps/AssetMoreInfo.aspx?AssetID=626210"}},{"type":"Feature","geometry":{"type":"Point","coordinates":[-86.00905849,39.77835215]},"properties":{"name":"WAF - Warren Township Trustee HH","assetType":"Marion County Trustees","dataYear":"2007","assetId":"625686","subcategory":"Government Offices","detail":"https://classic.savi.org/SAVI/PopUps/AssetMoreInfo.aspx?AssetID=625686"}},{"type":"Feature","geometry":{"type":"Point","coordinates":[-86.19029668,39.84479829]},"properties":{"name":"WAF - Washington Township Trustee HH","assetType":"Marion County Trustees","dataYear":"2007","assetId":"625684","subcategory":"Government Offices","detail":"https://classic.savi.org/SAVI/PopUps/AssetMoreInfo.aspx?AssetID=625684"}},{"type":"Feature","geometry":{"type":"Point","coordinates":[-86.25251879,39.75201595]},"properties":{"name":"WAF - Wayne Township Trustee HH","assetType":"Marion County Trustees","dataYear":"2007","assetId":"625685","subcategory":"Government Offices","detail":"https://classic.savi.org/SAVI/PopUps/AssetMoreInfo.aspx?AssetID=625685"}},{"type":"Feature","geometry":{"type":"Point","coordinates":[-86.00905849,39.77835215]},"properties":{"name":"Warren Township Trustee Marion County","assetType":"Marion County Trustees","dataYear":"2007","assetId":"623541","subcategory":"Government Offices","detail":"https://classic.savi.org/SAVI/PopUps/AssetMoreInfo.aspx?AssetID=623541"}},{"type":"Feature","geometry":{"type":"Point","coordinates":[-86.25251879,39.75201595]},"properties":{"name":"Wayne Township Trustee Marion County","assetType":"Marion County Trustees","dataYear":"2007","assetId":"623596","subcategory":"Government Offices","detail":"https://classic.savi.org/SAVI/PopUps/AssetMoreInfo.aspx?AssetID=623596"}},{"type":"Feature","geometry":{"type":"Point","coordinates":[-86.56416918,39.4544688]},"properties":{"name":"Ashland Township Trustee Morgan County","assetType":"Morgan County Trustees","dataYear":"2007","assetId":"624200","subcategory":"Government Offices","detail":"https://classic.savi.org/SAVI/PopUps/AssetMoreInfo.aspx?AssetID=624200"}},{"type":"Feature","geometry":{"type":"Point","coordinates":[-86.50933196,39.37325422]},"properties":{"name":"Baker Township Trustee Morgan County","assetType":"Morgan County Trustees","dataYear":"2007","assetId":"624301","subcategory":"Government Offices","detail":"https://classic.savi.org/SAVI/PopUps/AssetMoreInfo.aspx?AssetID=624301"}},{"type":"Feature","geometry":{"type":"Point","coordinates":[-86.36016577,39.62146529]},"properties":{"name":"Brown Civil Township Admin Offices Morgan County","assetType":"Morgan County Trustees","dataYear":"2007","assetId":"623881","subcategory":"Government Offices","detail":"https://classic.savi.org/SAVI/PopUps/AssetMoreInfo.aspx?AssetID=623881"}},{"type":"Feature","geometry":{"type":"Point","coordinates":[-86.4181758,39.53191801]},"properties":{"name":"Clay Township Trustee Morgan County","assetType":"Morgan County Trustees","dataYear":"2007","assetId":"624302","subcategory":"Government Offices","detail":"https://classic.savi.org/SAVI/PopUps/AssetMoreInfo.aspx?AssetID=624302"}},{"type":"Feature","geometry":{"type":"Point","coordinates":[-86.3384718,39.45187227]},"properties":{"name":"Green Township Trustee Morgan County","assetType":"Morgan County Trustees","dataYear":"2007","assetId":"624303","subcategory":"Government Offices","detail":"https://classic.savi.org/SAVI/PopUps/AssetMoreInfo.aspx?AssetID=624303"}},{"type":"Feature","geometry":{"type":"Point","coordinates":[-86.25866774,39.55548697]},"properties":{"name":"Harrison Township Trustee Morgan County","assetType":"Morgan County Trustees","dataYear":"2007","assetId":"624171","subcategory":"Government Offices","detail":"https://classic.savi.org/SAVI/PopUps/AssetMoreInfo.aspx?AssetID=624171"}},{"type":"Feature","geometry":{"type":"Point","coordinates":[-86.36852318,39.36299049]},"properties":{"name":"Jackson Township Trustee Morgan County","assetType":"Morgan County Trustees","dataYear":"2007","assetId":"624304","subcategory":"Government Offices","detail":"https://classic.savi.org/SAVI/PopUps/AssetMoreInfo.aspx?AssetID=624304"}},{"type":"Feature","geometry":{"type":"Point","coordinates":[-86.29672993,39.61782698]},"properties":{"name":"Madison Township Trustee Morgan County","assetType":"Morgan County Trustees","dataYear":"2007","assetId":"624163","subcategory":"Government Offices","detail":"https://classic.savi.org/SAVI/PopUps/AssetMoreInfo.aspx?AssetID=624163"}},{"type":"Feature","geometry":{"type":"Point","coordinates":[-86.43051688,39.42775203]},"properties":{"name":"Washington Township Trustee Morgan County","assetType":"Morgan County Trustees","dataYear":"2007","assetId":"623884","subcategory":"Government Offices","detail":"https://classic.savi.org/SAVI/PopUps/AssetMoreInfo.aspx?AssetID=623884"}},{"type":"Feature","geometry":{"type":"Point","coordinates":[-85.77468764,39.51967511]},"properties":{"name":"Addison Township Trustee Shelby County","assetType":"Shelby County Trustees","dataYear":"2007","assetId":"623885","subcategory":"Government Offices","detail":"https://classic.savi.org/SAVI/PopUps/AssetMoreInfo.aspx?AssetID=623885"}},{"type":"Feature","geometry":{"type":"Point","coordinates":[-85.86250636,39.58672399]},"properties":{"name":"Brandywine Township Trustee Shelby County","assetType":"Shelby County Trustees","dataYear":"2007","assetId":"624170","subcategory":"Government Offices","detail":"https://classic.savi.org/SAVI/PopUps/AssetMoreInfo.aspx?AssetID=624170"}},{"type":"Feature","geometry":{"type":"Point","coordinates":[-86.1150346,39.70754894]},"properties":{"name":"Hendricks Township Trustee Shelby County","assetType":"Shelby County Trustees","dataYear":"2007","assetId":"624164","subcategory":"Government Offices","detail":"https://classic.savi.org/SAVI/PopUps/AssetMoreInfo.aspx?AssetID=624164"}},{"type":"Feature","geometry":{"type":"Point","coordinates":[-85.89331497,39.42675853]},"properties":{"name":"Jackson Township Trustee Shelby County","assetType":"Shelby County Trustees","dataYear":"2007","assetId":"624168","subcategory":"Government Offices","detail":"https://classic.savi.org/SAVI/PopUps/AssetMoreInfo.aspx?AssetID=624168"}},{"type":"Feature","geometry":{"type":"Point","coordinates":[-85.63549516,39.48273095]},"properties":{"name":"Liberty Township Trustee Shelby County","assetType":"Shelby County Trustees","dataYear":"2007","assetId":"624306","subcategory":"Government Offices","detail":"https://classic.savi.org/SAVI/PopUps/AssetMoreInfo.aspx?AssetID=624306"}},{"type":"Feature","geometry":{"type":"Point","coordinates":[-85.77240075,39.60230553]},"properties":{"name":"Marion Township Trustee Shelby County","assetType":"Shelby County Trustees","dataYear":"2007","assetId":"624169","subcategory":"Government Offices","detail":"https://classic.savi.org/SAVI/PopUps/AssetMoreInfo.aspx?AssetID=624169"}},{"type":"Feature","geometry":{"type":"Point","coordinates":[-85.84343983,39.64280067]},"properties":{"name":"Moral Township Trustee Shelby County","assetType":"Shelby County Trustees","dataYear":"2007","assetId":"623886","subcategory":"Government Offices","detail":"https://classic.savi.org/SAVI/PopUps/AssetMoreInfo.aspx?AssetID=623886"}},{"type":"Feature","geometry":{"type":"Point","coordinates":[-85.72488521,39.45324672]},"properties":{"name":"Shelby Township Trustee Shelby County","assetType":"Shelby County Trustees","dataYear":"2007","assetId":"624166","subcategory":"Government Offices","detail":"https://classic.savi.org/SAVI/PopUps/AssetMoreInfo.aspx?AssetID=624166"}},{"type":"Feature","geometry":{"type":"Point","coordinates":[-85.65317549,39.59887613]},"properties":{"name":"Union Township Trustee Shelby County","assetType":"Shelby County Trustees","dataYear":"2007","assetId":"624307","subcategory":"Government Offices","detail":"https://classic.savi.org/SAVI/PopUps/AssetMoreInfo.aspx?AssetID=624307"}},{"type":"Feature","geometry":{"type":"Point","coordinates":[-85.78158048,39.51822219]},"properties":{"name":"Van Buren Township Trustee Shelby County","assetType":"Shelby County Trustees","dataYear":"2007","assetId":"623887","subcategory":"Government Offices","detail":"https://classic.savi.org/SAVI/PopUps/AssetMoreInfo.aspx?AssetID=623887"}},{"type":"Feature","geometry":{"type":"Point","coordinates":[-85.82693694,39.4059355]},"properties":{"name":"Washington Township Trustee Shelby County","assetType":"Shelby County Trustees","dataYear":"2007","assetId":"624308","subcategory":"Government Offices","detail":"https://classic.savi.org/SAVI/PopUps/AssetMoreInfo.aspx?AssetID=624308"}}]}