{"type":"FeatureCollection","features":[{"type":"Feature","geometry":{"type":"Point","coordinates":[-86.157463,39.7872279]},"properties":{"name":"American Red Cross of Greater Indianapolis","assetType":"Assets_13_91___","dataYear":"","assetId":"932053","subcategory":"United Way","detail":"https://classic.savi.org/SAVI/PopUps/AssetMoreInfo.aspx?AssetID=932053"}},{"type":"Feature","geometry":{"type":"Point","coordinates":[-86.47322562,40.07958446]},"properties":{"name":"Boone County Senior Services Inc","assetType":"Assets_13_91___","dataYear":"","assetId":"932047","subcategory":"United Way","detail":"https://classic.savi.org/SAVI/PopUps/AssetMoreInfo.aspx?AssetID=932047"}},{"type":"Feature","geometry":{"type":"Point","coordinates":[-86.15796994,39.78617821]},"properties":{"name":"Catholic Charities Indianapolis","assetType":"Assets_13_91___","dataYear":"","assetId":"932041","subcategory":"United Way","detail":"https://classic.savi.org/SAVI/PopUps/AssetMoreInfo.aspx?AssetID=932041"}},{"type":"Feature","geometry":{"type":"Point","coordinates":[-86.11852736,39.90555358]},"properties":{"name":"Child Advocates Inc","assetType":"Assets_13_91___","dataYear":"","assetId":"932039","subcategory":"United Way","detail":"https://classic.savi.org/SAVI/PopUps/AssetMoreInfo.aspx?AssetID=932039"}},{"type":"Feature","geometry":{"type":"Point","coordinates":[-86.16750343,39.78803867]},"properties":{"name":"Children s Bureau Inc","assetType":"Assets_13_91___","dataYear":"","assetId":"932038","subcategory":"United Way","detail":"https://classic.savi.org/SAVI/PopUps/AssetMoreInfo.aspx?AssetID=932038"}},{"type":"Feature","geometry":{"type":"Point","coordinates":[-86.15671567,39.8255663]},"properties":{"name":"Connect2Help","assetType":"Assets_13_91___","dataYear":"","assetId":"932033","subcategory":"United Way","detail":"https://classic.savi.org/SAVI/PopUps/AssetMoreInfo.aspx?AssetID=932033"}},{"type":"Feature","geometry":{"type":"Point","coordinates":[-86.11399143,39.88337062]},"properties":{"name":"Fay Biccard Glick Neighborhood Center Crooked Creek","assetType":"Assets_13_91___","dataYear":"","assetId":"932023","subcategory":"United Way","detail":"https://classic.savi.org/SAVI/PopUps/AssetMoreInfo.aspx?AssetID=932023"}},{"type":"Feature","geometry":{"type":"Point","coordinates":[-86.17027103,39.80159246]},"properties":{"name":"Flanner House of Indianapolis Inc","assetType":"Assets_13_91___","dataYear":"","assetId":"932022","subcategory":"United Way","detail":"https://classic.savi.org/SAVI/PopUps/AssetMoreInfo.aspx?AssetID=932022"}},{"type":"Feature","geometry":{"type":"Point","coordinates":[-86.15620964,39.78103129]},"properties":{"name":"HVAF of Indiana Inc","assetType":"Assets_13_91___","dataYear":"","assetId":"932012","subcategory":"United Way","detail":"https://classic.savi.org/SAVI/PopUps/AssetMoreInfo.aspx?AssetID=932012"}},{"type":"Feature","geometry":{"type":"Point","coordinates":[-85.77428487,39.81219512]},"properties":{"name":"Hancock County Senior Services Inc","assetType":"Assets_13_91___","dataYear":"","assetId":"932018","subcategory":"United Way","detail":"https://classic.savi.org/SAVI/PopUps/AssetMoreInfo.aspx?AssetID=932018"}},{"type":"Feature","geometry":{"type":"Point","coordinates":[-86.1518549,39.77605246]},"properties":{"name":"Happy Hollow Children s Camp Inc","assetType":"Assets_13_91___","dataYear":"","assetId":"932017","subcategory":"United Way","detail":"https://classic.savi.org/SAVI/PopUps/AssetMoreInfo.aspx?AssetID=932017"}},{"type":"Feature","geometry":{"type":"Point","coordinates":[-86.5019261,39.76763039]},"properties":{"name":"Hendricks County Senior Services","assetType":"Assets_13_91___","dataYear":"","assetId":"932015","subcategory":"United Way","detail":"https://classic.savi.org/SAVI/PopUps/AssetMoreInfo.aspx?AssetID=932015"}},{"type":"Feature","geometry":{"type":"Point","coordinates":[-86.13944954,39.76657632]},"properties":{"name":"Horizon House","assetType":"Assets_13_91___","dataYear":"","assetId":"932013","subcategory":"United Way","detail":"https://classic.savi.org/SAVI/PopUps/AssetMoreInfo.aspx?AssetID=932013"}},{"type":"Feature","geometry":{"type":"Point","coordinates":[-86.15402468,39.76943648]},"properties":{"name":"Indiana Legal Services Inc","assetType":"Assets_13_91___","dataYear":"","assetId":"932011","subcategory":"United Way","detail":"https://classic.savi.org/SAVI/PopUps/AssetMoreInfo.aspx?AssetID=932011"}},{"type":"Feature","geometry":{"type":"Point","coordinates":[-86.00782373,39.85244006]},"properties":{"name":"Kids Voice of Indiana Inc","assetType":"Assets_13_91___","dataYear":"","assetId":"932003","subcategory":"United Way","detail":"https://classic.savi.org/SAVI/PopUps/AssetMoreInfo.aspx?AssetID=932003"}},{"type":"Feature","geometry":{"type":"Point","coordinates":[-86.01170847,39.82746745]},"properties":{"name":"La Plaza","assetType":"Assets_13_91___","dataYear":"","assetId":"932002","subcategory":"United Way","detail":"https://classic.savi.org/SAVI/PopUps/AssetMoreInfo.aspx?AssetID=932002"}},{"type":"Feature","geometry":{"type":"Point","coordinates":[-86.1518549,39.77605246]},"properties":{"name":"Legal Aid Society Inc - Indianapolis","assetType":"Assets_13_91___","dataYear":"","assetId":"932000","subcategory":"United Way","detail":"https://classic.savi.org/SAVI/PopUps/AssetMoreInfo.aspx?AssetID=932000"}},{"type":"Feature","geometry":{"type":"Point","coordinates":[-86.1446917,39.82089248]},"properties":{"name":"Martin Center Sickle Cell Initiative","assetType":"Assets_13_91___","dataYear":"","assetId":"931997","subcategory":"United Way","detail":"https://classic.savi.org/SAVI/PopUps/AssetMoreInfo.aspx?AssetID=931997"}},{"type":"Feature","geometry":{"type":"Point","coordinates":[-86.1451515,39.77394679]},"properties":{"name":"Meals on Wheels of Central Indiana","assetType":"Assets_13_91___","dataYear":"","assetId":"931993","subcategory":"United Way","detail":"https://classic.savi.org/SAVI/PopUps/AssetMoreInfo.aspx?AssetID=931993"}},{"type":"Feature","geometry":{"type":"Point","coordinates":[-85.78642954,39.78405303]},"properties":{"name":"Meals on Wheels of Hancock County Inc","assetType":"Assets_13_91___","dataYear":"","assetId":"931992","subcategory":"United Way","detail":"https://classic.savi.org/SAVI/PopUps/AssetMoreInfo.aspx?AssetID=931992"}},{"type":"Feature","geometry":{"type":"Point","coordinates":[-86.15633349,39.81647458]},"properties":{"name":"Neighborhood Christian Legal Clinic","assetType":"Assets_13_91___","dataYear":"","assetId":"931990","subcategory":"United Way","detail":"https://classic.savi.org/SAVI/PopUps/AssetMoreInfo.aspx?AssetID=931990"}},{"type":"Feature","geometry":{"type":"Point","coordinates":[-86.1320807,39.96426217]},"properties":{"name":"PrimeLife Enrichment Inc","assetType":"Assets_13_91___","dataYear":"","assetId":"931987","subcategory":"United Way","detail":"https://classic.savi.org/SAVI/PopUps/AssetMoreInfo.aspx?AssetID=931987"}},{"type":"Feature","geometry":{"type":"Point","coordinates":[-86.13908525,39.76569962]},"properties":{"name":"Second Helpings Inc","assetType":"Assets_13_91___","dataYear":"","assetId":"931983","subcategory":"United Way","detail":"https://classic.savi.org/SAVI/PopUps/AssetMoreInfo.aspx?AssetID=931983"}},{"type":"Feature","geometry":{"type":"Point","coordinates":[-86.50160799,39.76763015]},"properties":{"name":"Sheltering Wings","assetType":"Assets_13_91___","dataYear":"","assetId":"931982","subcategory":"United Way","detail":"https://classic.savi.org/SAVI/PopUps/AssetMoreInfo.aspx?AssetID=931982"}},{"type":"Feature","geometry":{"type":"Point","coordinates":[-86.50294947,39.76763039]},"properties":{"name":"Sycamore Services Inc","assetType":"Assets_13_91___","dataYear":"","assetId":"931978","subcategory":"United Way","detail":"https://classic.savi.org/SAVI/PopUps/AssetMoreInfo.aspx?AssetID=931978"}},{"type":"Feature","geometry":{"type":"Point","coordinates":[-86.15720656,39.79357862]},"properties":{"name":"The Julian Center Inc","assetType":"Assets_13_91___","dataYear":"","assetId":"932004","subcategory":"United Way","detail":"https://classic.savi.org/SAVI/PopUps/AssetMoreInfo.aspx?AssetID=932004"}},{"type":"Feature","geometry":{"type":"Point","coordinates":[-86.15689344,39.81202568]},"properties":{"name":"The Salvation Army","assetType":"Assets_13_91___","dataYear":"","assetId":"931984","subcategory":"United Way","detail":"https://classic.savi.org/SAVI/PopUps/AssetMoreInfo.aspx?AssetID=931984"}},{"type":"Feature","geometry":{"type":"Point","coordinates":[-86.15671567,39.8255663]},"properties":{"name":"The Villages","assetType":"Assets_13_91___","dataYear":"","assetId":"931976","subcategory":"United Way","detail":"https://classic.savi.org/SAVI/PopUps/AssetMoreInfo.aspx?AssetID=931976"}},{"type":"Feature","geometry":{"type":"Point","coordinates":[-86.43202726,39.42941381]},"properties":{"name":"WellSpring Center","assetType":"Assets_13_91___","dataYear":"","assetId":"931974","subcategory":"United Way","detail":"https://classic.savi.org/SAVI/PopUps/AssetMoreInfo.aspx?AssetID=931974"}},{"type":"Feature","geometry":{"type":"Point","coordinates":[-86.12129118,39.84173143]},"properties":{"name":"AYS Inc","assetType":"Assets_13_94___","dataYear":"","assetId":"932051","subcategory":"United Way","detail":"https://classic.savi.org/SAVI/PopUps/AssetMoreInfo.aspx?AssetID=932051"}},{"type":"Feature","geometry":{"type":"Point","coordinates":[-86.40382861,39.42959327]},"properties":{"name":"Barbara B Jordan YMCA","assetType":"Assets_13_94___","dataYear":"","assetId":"932050","subcategory":"United Way","detail":"https://classic.savi.org/SAVI/PopUps/AssetMoreInfo.aspx?AssetID=932050"}},{"type":"Feature","geometry":{"type":"Point","coordinates":[-86.15685201,39.80944908]},"properties":{"name":"Big Brothers Big Sisters of Central Indiana","assetType":"Assets_13_94___","dataYear":"","assetId":"932049","subcategory":"United Way","detail":"https://classic.savi.org/SAVI/PopUps/AssetMoreInfo.aspx?AssetID=932049"}},{"type":"Feature","geometry":{"type":"Point","coordinates":[-86.00711925,40.04587441]},"properties":{"name":"Boys & Girls Club of Noblesville","assetType":"Assets_13_94___","dataYear":"","assetId":"932043","subcategory":"United Way","detail":"https://classic.savi.org/SAVI/PopUps/AssetMoreInfo.aspx?AssetID=932043"}},{"type":"Feature","geometry":{"type":"Point","coordinates":[-86.28109944,39.96284331]},"properties":{"name":"Boys & Girls Club of Zionsville","assetType":"Assets_13_94___","dataYear":"","assetId":"932042","subcategory":"United Way","detail":"https://classic.savi.org/SAVI/PopUps/AssetMoreInfo.aspx?AssetID=932042"}},{"type":"Feature","geometry":{"type":"Point","coordinates":[-85.76132494,39.78891621]},"properties":{"name":"Boys & Girls Clubs of Hancock County","assetType":"Assets_13_94___","dataYear":"","assetId":"932045","subcategory":"United Way","detail":"https://classic.savi.org/SAVI/PopUps/AssetMoreInfo.aspx?AssetID=932045"}},{"type":"Feature","geometry":{"type":"Point","coordinates":[-86.15638399,39.82689594]},"properties":{"name":"Boys & Girls Clubs of Indianapolis","assetType":"Assets_13_94___","dataYear":"","assetId":"932044","subcategory":"United Way","detail":"https://classic.savi.org/SAVI/PopUps/AssetMoreInfo.aspx?AssetID=932044"}},{"type":"Feature","geometry":{"type":"Point","coordinates":[-86.15969851,39.75008158]},"properties":{"name":"Concord Neighborhood Center","assetType":"Assets_13_94___","dataYear":"","assetId":"932034","subcategory":"United Way","detail":"https://classic.savi.org/SAVI/PopUps/AssetMoreInfo.aspx?AssetID=932034"}},{"type":"Feature","geometry":{"type":"Point","coordinates":[-86.15778671,39.79046517]},"properties":{"name":"Early Learning Indiana formerly Day Nursery","assetType":"Assets_13_94___","dataYear":"","assetId":"932029","subcategory":"United Way","detail":"https://classic.savi.org/SAVI/PopUps/AssetMoreInfo.aspx?AssetID=932029"}},{"type":"Feature","geometry":{"type":"Point","coordinates":[-86.11906905,39.80330126]},"properties":{"name":"Edna Martin Christian Center Inc","assetType":"Assets_13_94___","dataYear":"","assetId":"932027","subcategory":"United Way","detail":"https://classic.savi.org/SAVI/PopUps/AssetMoreInfo.aspx?AssetID=932027"}},{"type":"Feature","geometry":{"type":"Point","coordinates":[-86.28750599,39.79561006]},"properties":{"name":"Girl Scouts of Central Indiana Inc","assetType":"Assets_13_94___","dataYear":"","assetId":"932021","subcategory":"United Way","detail":"https://classic.savi.org/SAVI/PopUps/AssetMoreInfo.aspx?AssetID=932021"}},{"type":"Feature","geometry":{"type":"Point","coordinates":[-86.15672851,39.82627514]},"properties":{"name":"Girls Incorporated of Greater Indianapolis","assetType":"Assets_13_94___","dataYear":"","assetId":"932020","subcategory":"United Way","detail":"https://classic.savi.org/SAVI/PopUps/AssetMoreInfo.aspx?AssetID=932020"}},{"type":"Feature","geometry":{"type":"Point","coordinates":[-86.19069133,39.77462371]},"properties":{"name":"Goodwill of Central & Southern Indiana","assetType":"Assets_13_94___","dataYear":"","assetId":"932019","subcategory":"United Way","detail":"https://classic.savi.org/SAVI/PopUps/AssetMoreInfo.aspx?AssetID=932019"}},{"type":"Feature","geometry":{"type":"Point","coordinates":[-86.12129118,39.84173143]},"properties":{"name":"Indiana Youth Group IYG","assetType":"Assets_13_94___","dataYear":"","assetId":"932010","subcategory":"United Way","detail":"https://classic.savi.org/SAVI/PopUps/AssetMoreInfo.aspx?AssetID=932010"}},{"type":"Feature","geometry":{"type":"Point","coordinates":[-86.16964748,39.7776688]},"properties":{"name":"Indianapolis Urban League IUL","assetType":"Assets_13_94___","dataYear":"","assetId":"932008","subcategory":"United Way","detail":"https://classic.savi.org/SAVI/PopUps/AssetMoreInfo.aspx?AssetID=932008"}},{"type":"Feature","geometry":{"type":"Point","coordinates":[-86.47160843,40.04738389]},"properties":{"name":"Lebanon Area Boys & Girls Club","assetType":"Assets_13_94___","dataYear":"","assetId":"932001","subcategory":"United Way","detail":"https://classic.savi.org/SAVI/PopUps/AssetMoreInfo.aspx?AssetID=932001"}},{"type":"Feature","geometry":{"type":"Point","coordinates":[-86.15784867,39.82856687]},"properties":{"name":"Martin Luther King Community Center","assetType":"Assets_13_94___","dataYear":"","assetId":"931996","subcategory":"United Way","detail":"https://classic.savi.org/SAVI/PopUps/AssetMoreInfo.aspx?AssetID=931996"}},{"type":"Feature","geometry":{"type":"Point","coordinates":[-86.1518549,39.77605246]},"properties":{"name":"Social Health Association of Indiana Inc","assetType":"Assets_13_94___","dataYear":"","assetId":"931981","subcategory":"United Way","detail":"https://classic.savi.org/SAVI/PopUps/AssetMoreInfo.aspx?AssetID=931981"}},{"type":"Feature","geometry":{"type":"Point","coordinates":[-86.16752796,39.77995065]},"properties":{"name":"St Mary s Child Center","assetType":"Assets_13_94___","dataYear":"","assetId":"931985","subcategory":"United Way","detail":"https://classic.savi.org/SAVI/PopUps/AssetMoreInfo.aspx?AssetID=931985"}},{"type":"Feature","geometry":{"type":"Point","coordinates":[-86.04704748,39.89742494]},"properties":{"name":"Starfish Initiative","assetType":"Assets_13_94___","dataYear":"","assetId":"931979","subcategory":"United Way","detail":"https://classic.savi.org/SAVI/PopUps/AssetMoreInfo.aspx?AssetID=931979"}},{"type":"Feature","geometry":{"type":"Point","coordinates":[-86.06360667,39.49152303]},"properties":{"name":"Youth Connections","assetType":"Assets_13_94___","dataYear":"","assetId":"931972","subcategory":"United Way","detail":"https://classic.savi.org/SAVI/PopUps/AssetMoreInfo.aspx?AssetID=931972"}},{"type":"Feature","geometry":{"type":"Point","coordinates":[-86.26071381,39.89921702]},"properties":{"name":"Bosma Enterprises","assetType":"Assets_13_93___","dataYear":"","assetId":"932046","subcategory":"United Way","detail":"https://classic.savi.org/SAVI/PopUps/AssetMoreInfo.aspx?AssetID=932046"}},{"type":"Feature","geometry":{"type":"Point","coordinates":[-86.20141271,39.77509015]},"properties":{"name":"Christamore House Family and Community Center","assetType":"Assets_13_93___","dataYear":"","assetId":"932036","subcategory":"United Way","detail":"https://classic.savi.org/SAVI/PopUps/AssetMoreInfo.aspx?AssetID=932036"}},{"type":"Feature","geometry":{"type":"Point","coordinates":[-86.01170847,39.82746745]},"properties":{"name":"Community Alliance of the Far Eastside Inc CAF","assetType":"Assets_13_93___","dataYear":"","assetId":"932035","subcategory":"United Way","detail":"https://classic.savi.org/SAVI/PopUps/AssetMoreInfo.aspx?AssetID=932035"}},{"type":"Feature","geometry":{"type":"Point","coordinates":[-86.15651392,39.80441448]},"properties":{"name":"Connected By 25","assetType":"Assets_13_93___","dataYear":"","assetId":"932032","subcategory":"United Way","detail":"https://classic.savi.org/SAVI/PopUps/AssetMoreInfo.aspx?AssetID=932032"}},{"type":"Feature","geometry":{"type":"Point","coordinates":[-86.12091433,39.84286011]},"properties":{"name":"Easterseals Crossroads","assetType":"Assets_13_93___","dataYear":"","assetId":"932028","subcategory":"United Way","detail":"https://classic.savi.org/SAVI/PopUps/AssetMoreInfo.aspx?AssetID=932028"}},{"type":"Feature","geometry":{"type":"Point","coordinates":[-86.15870631,39.8074398]},"properties":{"name":"Fathers and Families Center","assetType":"Assets_13_93___","dataYear":"","assetId":"932024","subcategory":"United Way","detail":"https://classic.savi.org/SAVI/PopUps/AssetMoreInfo.aspx?AssetID=932024"}},{"type":"Feature","geometry":{"type":"Point","coordinates":[-86.20217863,39.76859191]},"properties":{"name":"Hawthorne Community Center","assetType":"Assets_13_93___","dataYear":"","assetId":"932016","subcategory":"United Way","detail":"https://classic.savi.org/SAVI/PopUps/AssetMoreInfo.aspx?AssetID=932016"}},{"type":"Feature","geometry":{"type":"Point","coordinates":[-86.1451515,39.77394679]},"properties":{"name":"Indianapolis Neighborhood Resource Center INRC","assetType":"Assets_13_93___","dataYear":"","assetId":"932009","subcategory":"United Way","detail":"https://classic.savi.org/SAVI/PopUps/AssetMoreInfo.aspx?AssetID=932009"}},{"type":"Feature","geometry":{"type":"Point","coordinates":[-86.18601732,39.78876355]},"properties":{"name":"MCCOY Inc - Marion County Commission On Youth Inc","assetType":"Assets_13_93___","dataYear":"","assetId":"931994","subcategory":"United Way","detail":"https://classic.savi.org/SAVI/PopUps/AssetMoreInfo.aspx?AssetID=931994"}},{"type":"Feature","geometry":{"type":"Point","coordinates":[-86.19465994,39.7511725]},"properties":{"name":"Mary Rigg Neighborhood Center","assetType":"Assets_13_93___","dataYear":"","assetId":"931995","subcategory":"United Way","detail":"https://classic.savi.org/SAVI/PopUps/AssetMoreInfo.aspx?AssetID=931995"}},{"type":"Feature","geometry":{"type":"Point","coordinates":[-86.03128012,39.79497087]},"properties":{"name":"Noble","assetType":"Assets_13_93___","dataYear":"","assetId":"931989","subcategory":"United Way","detail":"https://classic.savi.org/SAVI/PopUps/AssetMoreInfo.aspx?AssetID=931989"}},{"type":"Feature","geometry":{"type":"Point","coordinates":[-86.11976288,39.80829122]},"properties":{"name":"PACE Inc Public Advocates in Community Re-Entry","assetType":"Assets_13_93___","dataYear":"","assetId":"931988","subcategory":"United Way","detail":"https://classic.savi.org/SAVI/PopUps/AssetMoreInfo.aspx?AssetID=931988"}},{"type":"Feature","geometry":{"type":"Point","coordinates":[-86.13933304,39.75459711]},"properties":{"name":"Southeast Community Services Inc","assetType":"Assets_13_93___","dataYear":"","assetId":"931980","subcategory":"United Way","detail":"https://classic.savi.org/SAVI/PopUps/AssetMoreInfo.aspx?AssetID=931980"}},{"type":"Feature","geometry":{"type":"Point","coordinates":[-86.47686708,40.04777315]},"properties":{"name":"The Arc of Greater Boone County","assetType":"Assets_13_93___","dataYear":"","assetId":"932052","subcategory":"United Way","detail":"https://classic.savi.org/SAVI/PopUps/AssetMoreInfo.aspx?AssetID=932052"}},{"type":"Feature","geometry":{"type":"Point","coordinates":[-86.15414911,39.77939978]},"properties":{"name":"Volunteers of America of Indiana","assetType":"Assets_13_93___","dataYear":"","assetId":"931975","subcategory":"United Way","detail":"https://classic.savi.org/SAVI/PopUps/AssetMoreInfo.aspx?AssetID=931975"}},{"type":"Feature","geometry":{"type":"Point","coordinates":[-86.2611933,39.92455938]},"properties":{"name":"American Cancer Society Inc Lakeshore Division - Central Indiana","assetType":"Assets_13_92___","dataYear":"","assetId":"932054","subcategory":"United Way","detail":"https://classic.savi.org/SAVI/PopUps/AssetMoreInfo.aspx?AssetID=932054"}},{"type":"Feature","geometry":{"type":"Point","coordinates":[-86.46829462,40.04390034]},"properties":{"name":"Boone County Cancer Society","assetType":"Assets_13_92___","dataYear":"","assetId":"932048","subcategory":"United Way","detail":"https://classic.savi.org/SAVI/PopUps/AssetMoreInfo.aspx?AssetID=932048"}},{"type":"Feature","geometry":{"type":"Point","coordinates":[-86.19765311,39.22895446]},"properties":{"name":"Catholic Youth Organization Camp Rancho Framasa","assetType":"Assets_13_92___","dataYear":"","assetId":"932040","subcategory":"United Way","detail":"https://classic.savi.org/SAVI/PopUps/AssetMoreInfo.aspx?AssetID=932040"}},{"type":"Feature","geometry":{"type":"Point","coordinates":[-86.04287294,39.86851441]},"properties":{"name":"Crossroads of America Council Boy Scouts of America","assetType":"Assets_13_92___","dataYear":"","assetId":"932031","subcategory":"United Way","detail":"https://classic.savi.org/SAVI/PopUps/AssetMoreInfo.aspx?AssetID=932031"}},{"type":"Feature","geometry":{"type":"Point","coordinates":[-86.03948194,39.90287431]},"properties":{"name":"Fairbanks","assetType":"Assets_13_92___","dataYear":"","assetId":"932026","subcategory":"United Way","detail":"https://classic.savi.org/SAVI/PopUps/AssetMoreInfo.aspx?AssetID=932026"}},{"type":"Feature","geometry":{"type":"Point","coordinates":[-86.1518549,39.77605246]},"properties":{"name":"Families First","assetType":"Assets_13_92___","dataYear":"","assetId":"932025","subcategory":"United Way","detail":"https://classic.savi.org/SAVI/PopUps/AssetMoreInfo.aspx?AssetID=932025"}},{"type":"Feature","geometry":{"type":"Point","coordinates":[-86.15992842,39.83891448]},"properties":{"name":"Heritage Place of Indianapolis Inc","assetType":"Assets_13_92___","dataYear":"","assetId":"932014","subcategory":"United Way","detail":"https://classic.savi.org/SAVI/PopUps/AssetMoreInfo.aspx?AssetID=932014"}},{"type":"Feature","geometry":{"type":"Point","coordinates":[-86.17290852,39.87970009]},"properties":{"name":"JCC Indianapolis","assetType":"Assets_13_92___","dataYear":"","assetId":"932006","subcategory":"United Way","detail":"https://classic.savi.org/SAVI/PopUps/AssetMoreInfo.aspx?AssetID=932006"}},{"type":"Feature","geometry":{"type":"Point","coordinates":[-86.31703182,39.73758579]},"properties":{"name":"Jameson Camp","assetType":"Assets_13_92___","dataYear":"","assetId":"932007","subcategory":"United Way","detail":"https://classic.savi.org/SAVI/PopUps/AssetMoreInfo.aspx?AssetID=932007"}},{"type":"Feature","geometry":{"type":"Point","coordinates":[-86.12315795,39.78155671]},"properties":{"name":"John Boner Neighborhood Centers","assetType":"Assets_13_92___","dataYear":"","assetId":"932005","subcategory":"United Way","detail":"https://classic.savi.org/SAVI/PopUps/AssetMoreInfo.aspx?AssetID=932005"}},{"type":"Feature","geometry":{"type":"Point","coordinates":[-86.15716919,39.79078586]},"properties":{"name":"Little Red Door Cancer Agency","assetType":"Assets_13_92___","dataYear":"","assetId":"931999","subcategory":"United Way","detail":"https://classic.savi.org/SAVI/PopUps/AssetMoreInfo.aspx?AssetID=931999"}},{"type":"Feature","geometry":{"type":"Point","coordinates":[-86.07367002,39.7879563]},"properties":{"name":"Lutheran Child & Family Services of IN Inc","assetType":"Assets_13_92___","dataYear":"","assetId":"931998","subcategory":"United Way","detail":"https://classic.savi.org/SAVI/PopUps/AssetMoreInfo.aspx?AssetID=931998"}},{"type":"Feature","geometry":{"type":"Point","coordinates":[-86.40569577,39.76164039]},"properties":{"name":"Mental Health America of Hendricks County","assetType":"Assets_13_92___","dataYear":"","assetId":"931991","subcategory":"United Way","detail":"https://classic.savi.org/SAVI/PopUps/AssetMoreInfo.aspx?AssetID=931991"}},{"type":"Feature","geometry":{"type":"Point","coordinates":[-86.1515153,39.81938479]},"properties":{"name":"Reach for Youth Inc","assetType":"Assets_13_92___","dataYear":"","assetId":"931986","subcategory":"United Way","detail":"https://classic.savi.org/SAVI/PopUps/AssetMoreInfo.aspx?AssetID=931986"}},{"type":"Feature","geometry":{"type":"Point","coordinates":[-86.11781711,39.8472491]},"properties":{"name":"Tangram","assetType":"Assets_13_92___","dataYear":"","assetId":"931977","subcategory":"United Way","detail":"https://classic.savi.org/SAVI/PopUps/AssetMoreInfo.aspx?AssetID=931977"}},{"type":"Feature","geometry":{"type":"Point","coordinates":[-86.20168325,39.93334315]},"properties":{"name":"The Children s TherAplay Foundation Inc","assetType":"Assets_13_92___","dataYear":"","assetId":"932037","subcategory":"United Way","detail":"https://classic.savi.org/SAVI/PopUps/AssetMoreInfo.aspx?AssetID=932037"}},{"type":"Feature","geometry":{"type":"Point","coordinates":[-86.13377625,39.76788668]},"properties":{"name":"The Damien Center Inc","assetType":"Assets_13_92___","dataYear":"","assetId":"932030","subcategory":"United Way","detail":"https://classic.savi.org/SAVI/PopUps/AssetMoreInfo.aspx?AssetID=932030"}},{"type":"Feature","geometry":{"type":"Point","coordinates":[-86.1518549,39.77605246]},"properties":{"name":"YMCA of Greater Indianapolis","assetType":"Assets_13_92___","dataYear":"","assetId":"931973","subcategory":"United Way","detail":"https://classic.savi.org/SAVI/PopUps/AssetMoreInfo.aspx?AssetID=931973"}}]}